contactid,title,description,overrideurl,affinity,clustergroup,ogname,ogtexthead,ogtitle1,ogtag1,ogurl1,ogtitle2,ogtag2,ogurl2,ogmoreinfo,ogmoreinfourltitle,ogmoreinfourltag,ogmoreinfourl,telephonename,phonetexthead,phoneopenhours,telephone,telephonename2,phonetexthead2,phoneopenhours2,telephone2,textphone,international,fax,phonemoreinfo,phonemoreinfourltitle,phonemoreinfourltag,phonemoreinfourl,emailtexthead,emailtitle1,emailtag1,emailaddress1,emailurl1,emailtitle2,emailtag2,emailaddress2,emailurl2,emailmoreinfo,emailmoreinfourltitle,emailmoreinfourltag,emailmoreinfourl,postname,posttexthead,posttag1,postaddress1,posttag2,postaddress2,posttag3,postaddress3,postmoreinfo,postmoreinfourltitle,postmoreinfourltag,postmoreinfourl,keywords,alt_meta_title,alt_meta_description,alt_meta_keywords,entrysource,externalid,lastupdated
1,"Accessibility & specialist services
Specialist services
Services for customers with special needs",We offer a number of services to assist customers with particular needs,http://www.hmrc.gov.uk/contactus/particular-needs.htm,,See also,,,,,,,,,,,,,,,,,,,,,,,,,,,,,,,,,,,,,,,,,,,,,,,,,,,,,,,,,enquiry,OiQNArO16c4,31/05/2013 14:58:23
2,"Bereavement Helpline
Death",What to do about Income Tax and Self Assessment after a death,,"individuals & employees > Bereavement
individuals & employees > All individuals",Tax,,,What to do about tax and benefits after a death,"How to handle tax or benefit affairs after a death, and who to notify about the death",http://www.hmrc.gov.uk/bereavement/index.htm,Claiming back Income Tax on behalf of someone who has died,Find out when a tax refund might be due and how to claim it,http://www.hmrc.gov.uk/incometax/claim-for-deceased.htm,,,,,Taxes Helpline,"Telephoning the deceased's HMRC office.

When you call HMRC and an automated message starts, select option 2 and then option 4 to speak to an advisor on the Bereavement Helpline.","8.00 am to 8.00 pm, Monday to Friday 
8.00 am to 4.00 pm Saturday",0300 200 3300,,,,,0300 200 3319,+44 135 535 9022,,"If the deceased was receiving tax credits, Child Benefit or other payments dealt with by HMRC, you'll also need to tell the relevant helpline of the death. 

You might also need to conact HMRC if: 
- the deceased was paying voluntary National Insurance contributions
- the deceased was self employed and paying National Insurance contributions by Direct Debit
- Inheritance Tax is due 
- the Estate needs to pay tax on untaxed income or Capital  Gains Tax 
- the deceased is registered for VAT  

Follow the 'Bereavement' link below to find details of other relevant helplines.",Bereavement,,http://search2.hmrc.gov.uk/kb5/hmrc/contactus/results.page?affinity=2039,,,,,,,,,,,,,,,"If you need to write to HMRC about Income Tax and bereavement, such as form R27 (reclaiming tax or paying tax when someone dies), Self Assessent Tax Return and any other correspondence relating to bereavement for Pay As You Earn and Self Assessment, write to the address below.",,"HM Revenue & Customs 
Pay As You Earn and Self Assessment  
PO Box 4000 
Cardiff 
CF14 8HR 

Please clearly mark your letter 'Bereavement' so that we can quickly direct it to a dedicated team. The team will be responsible for dealing with Pay As You Earn and Self Assessment bereaved customers.",,,,,,,,,,,,,enquiry,7JTJEvPnPuo,24/06/2013 09:33:46
4,"Charities and Community Amateur Sports Clubs (CASCs)
Gift Aid
Community Amateur Sports Clubs (CASC)","Information for charities and CASCs about Gift Aid, Payroll Giving, tax reliefs, VAT, how to complete a Company or Self Assessment tax return, and forms that can be downloaded.",,"businesses & corporations > Charities & CASCs
businesses & corporations > All businesses",Tax,,,Information for charities,"Information for charities and CASCs about Gift Aid, Payroll Giving, tax reliefs, VAT, how to complete a Company or Self Assessment tax return, and forms that can be downloaded.",http://www.hmrc.gov.uk/charities,,,,,,,,HM Revenue & Customs Charities Helpline,"Call the Charities Helpline for:
- advice on applying for recognition as a charity for tax and Gift Aid purposes
- advice on VAT reliefs for charities   
- advice on VAT reliefs for disabled and older people  
- registering as a CASC 
- help completing a Company or trust tax return 
- advice about Gift Aid, Payroll Giving and making a repayment claim 
- any other charity or CASC tax enquiries","8.00 am to 5.00 pm, Monday to Friday
Closed weekends and bank holidays",0845 302 0203,,,,,,,,"Please select option 1 if your enquiry is about VAT reliefs for disabled and older people. 

Alternatively you can follow the link below for all contacts for enquiries relating to VAT reliefs for disabled and older people.",VAT reliefs for disabled and older people,,http://search2.hmrc.gov.uk/kbroker/hmrc/contactus/search.ladv?raction=view&amp;fl0=__dsid%3A&amp;sm=0&amp;ha=34&amp;as=1&amp;sf=&amp;sp_scope=hmrc&amp;sc=hmrc&amp;nh=10&amp;sr=0&amp;cs=ISO-8859-1&amp;tx1=&amp;tx0=49691,You can email HMRC with your enquiry.,HMRC Charities enquiry forms,,,http://www.hmrc.gov.uk/charities/email.htm,,,,,"We cannot guarantee the security of emails you send to us or we send to you over the internet. Information sent by email over the internet is not secure and it is at the risk of being intercepted and read by people other than those it was intended for. Any information you send to us by email is at your own risk. If you would like us to reply by email,  please confirm in your message that you understand and accept the risks involved. 

If you have any doubt about the authenticity of an email you receive which claims to come from HMRC please do not follow any of the links within the email, disclose any personal details or respond to it. 

Follow the link below to report HMRC related phishing emails.",Reporting HMRC related phishing emails,,http://www.hmrc.gov.uk/security/reporting.htm,,,You can write to us at the following address:,"HM Revenue & Customs
Charities Correspondence S0708 
PO Box 205 
Bootle  
L69 9AZ",For enquiries relating to VAT relief for disabled and older people you can write to the following address:,"HM Revenue & Customs
VAT Disabled and Elderly Reliefs Correspondence S0708 
PO Box 205 
Bootle 
L69 9AZ",,,,,,,elderly,,,,enquiry,XqbRdlnT_mo,31/05/2013 14:58:24
5,Child Benefit,Help and advice for Child Benefit customers,,"individuals & employees > Bereavement
individuals & employees > All individuals",Tax credits and other benefits,,,High Income Child Benefit charge,"Find out how your tax could be affected if you or a partner have an income of more than £50,000 and get Child Benefit, and what you need to do",http://www.hmrc.gov.uk/childbenefitcharge,How to claim Child Benefit,"To claim Child Benefit you need to fill in a claim form. You can get one online, plus other information about claiming",http://www.hmrc.gov.uk/childbenefit/start/claiming/index.htm,,,,,Child Benefit Helpline,"We can only discuss your claim with you personally. If your partner or someone else calls for you, we can only give them general advice - unless you have authorised them to act on your behalf. 

General help and advice with your Child Benefit","8.00 am to 8.00 pm, Monday to Friday 
8.00 am to 4.00 pm Saturday 
Closed Sundays, Christmas Day, Boxing Day, and New Year's Day",0300 200 3100,,,,,0300 200 3103,+44 161 210 3086,,When you contact us please have your National Insurance number or Child Benefit number to hand.,,,,Use the HM Revenue & Customs email service,Let us know about changes online that may affect your Child Benefit,,,http://www.hmrc.gov.uk/childbenefit/change-circs.htm,Send us your Child Benefit query online,,,http://www.hmrc.gov.uk/childbenefit/question.htm,"By submitting information to us directly by using special forms on our website your message is secure, but our email reply to you, which will be sent over the internet, is not. Information sent by email over the internet is not secure and is at risk of being intercepted and read by people other than those it was intended for. If our response to you contains any personal or confidential information we will only reply to you by letter or telephone. 

If you have any doubt about the authenticity of an email you receive which claims to have come from HMRC please do not follow any links within the email, disclose any personal details or respond to it. 

Follow the link below to report HMRC related phishing emails.",Reporting HMRC related phishing emails,,http://www.hmrc.gov.uk/security/reporting.htm,,,You can write to us at the following address:,"Child Benefit Office 
PO Box 1  
Newcastle Upon Tyne  
NE88 1AA",,,,,,,,,,,,,enquiry,LNktdzH4gr0,31/05/2013 14:58:26
6,Child Trust Fund,For information and advice about the Child Trust Fund,,"individuals & employees > Bereavement
individuals & employees > All individuals",Tax credits and other benefits,,,,,,,,,,Child Trust Fund information for families on the GOV.UK website,"What is a Child Trust Fund, who can get one, payments, how to open, manage or change an account",https://www.gov.uk/child-trust-funds/overview,,,,,,,,,,,,,,,,Use the HM Revenue & Customs email service:,Send us a request online to find out where your Child Trust Fund account is held,,,http://www.hmrc.gov.uk/tools/childtrustfundclaim/ctfaccount.htm,Let us know if your child is terminally ill and you want to take money out of their Child Trust Fund or Junior Isa Account (JISA),,,http://www.hmrc.gov.uk/tools/childtrustfundclaim/claimform.htm,"By submitting information to us directly by using special forms on our website your message is secure, but our email reply to you, which will be sent over the internet, is not. Information sent by email over the internet is not secure and is at risk of being intercepted and read by people other than those it was intended for. If our response to you contains any personal or confidential information we will only reply to you by letter or telephone. 

If you have any doubt about the authenticity of an email you receive which claims to have come from HMRC please do not follow any links within the email, disclose any personal details or respond to it. 

Follow the link below to report HMRC related phishing emails:",Reporting HMRC related phishing emails,,http://www.hmrc.gov.uk/security/reporting.htm,,,,,,,,,,,,,,,,,enquiry,cwju-nnXjhI,18/06/2013 11:20:40
7,Complaints about HM Revenue & Customs,What to do if you're unhappy with our service,,"individuals & employees > All individuals
businesses & corporations > All businesses
employers > All employers",See also,,,How to complain to HM Revenue & Customs,"Usually, a phone call to the person or office you have been dealing with will allow us to put things right quickly, their number will be on any papers they have sent you. However, if you are still unhappy then you may want to complain. This page tells you how to make a complaint about our service and what to do if you're unhappy with the response you get.",http://www.hmrc.gov.uk/dealingwith/complain.htm,Complaints and putting things right,This factsheet tells you what you should do if you are unhappy with our service or the way we have treated you.,http://www.hmrc.gov.uk/factsheets/complaints-factsheet.pdf,,,,,,,,,,,,,,,,,,,,,,,,,,,,,,,,,,,,,,,,,,,,,,,,,enquiry,lfS60_PdP7g,31/05/2013 14:58:23
9,Construction Industry Scheme,Help and advice for subcontractors and contractors within the Construction Industry Scheme,,"individuals & employees > Self-employed
individuals & employees > All individuals
employers > All employers",Tax,,,Information about understanding and using CIS Online,How the CIS Online service can save you time and effort when verifying subcontractors and sending in your monthly returns,http://www.hmrc.gov.uk/cis/returns/cis-online.htm,Information to help you get to grips with CIS,Register to start using CIS Online or use the service now to verify contractors or file monthly returns if already registered,http://www.hmrc.gov.uk/cis/index.htm,,,,,Construction Industry Scheme (CIS) Helpline,Help and advice for subcontractors and contractors within the Construction Industry Scheme. You can also order CIS forms and leaflets from the helpline.,"8.00 am to 8.00 pm, Monday to Friday 
8.00 am to 4.00 pm Saturday  
Closed Sundays, Christmas Day, Boxing Day and New Year?s Day",0845 366 7899,,,,,0845 366 7894,+44 161 930 8706,,"When you get in touch, please tell us your National Insurance number and your Unique Taxpayer Reference.",,,,,,,,,,,,,,,,,,,,,,,,,,,,,,,,,enquiry,039zI-xtZZw,31/05/2013 14:58:24
10,Corporation Tax Payment,Corporation Tax payment enquiries,,businesses & corporations > All businesses,Tax,,,How to pay Corporation Tax,"Ways you can pay Corporation Tax, benefits of paying electronically, information you'll need and key deadlines",http://www.hmrc.gov.uk/payinghmrc/corporationtax.htm,What to do if you can't pay Corporation Tax,Contact HMRC as soon as possible if you don't think you can pay all your Corporation Tax,http://www.hmrc.gov.uk/ct/managing/pay-repay/cant-pay.htm,,,,,Corporation Tax Unit,For all Corporation Tax payment enquiries,"9.00 am to 5.00 pm, Monday to Thursday 
9.00 am to 4.30 pm Friday 
Closed weekends and bank holidays",01236 785057,Payment helpline for Group Payment Arrangement Team,Group Payment Arrangement Team,"9.00 am to 5.00 pm, Monday to Thursday 
9.30 am to 4.30 pm Friday 
Closed weekends and bank holidays",01236 785499,,,,,,,,,,,,,,,,,,,,,Written Corporation Tax enquiries should be addressed to:,,,"HM Revenue & Customs
Corporation Tax Unit 
Debt Management and Banking 
St Mungo's Road 
Cumbernauld 
Glasgow
G67 1YZ",Written Group Payment Arrangement enquiries should be addressed to:,"HM Revenue and Customs
Group Payment Arrangement Team  
Debt Management and Banking 
St Mungo's Road 
Cumbernauld 
Glasgow
G67 1YZ",,,,,,,,,,,enquiry,B3ZqklUNSLo,31/05/2013 14:58:24
11,"Duty Deferment Scheme General Enquiries
Scheme General Enquiries - Duty Deferment",For advice on the administration of the Duty Deferment Scheme and how to apply,,businesses & corporations > All businesses,"VAT, Customs, Excise duties",,,,,,,,,,,,,Central Deferment Office,,"9.00 am to 12.30 pm and 1.30 pm to 4.30 pm 
Monday to Friday
Closed weekends and bank holidays",01702 367 425/429/431/450,,,,,,,01702 366 091,"For help with Duty Deferment Electronic Statement (DDES) online facilities (including registering, activation, login, ID/password queries and de-enrolment) follow the 'Online Services Helpdesk' link below",Online Services Helpdesk,,https://online.hmrc.gov.uk/information/helpdesk,,,,,,,,,,,,,,,,,,,,,,,,,,,,,,enquiry,14jVVYZcuSI,31/05/2013 14:58:27
13,"Share Schemes for employees
Employee Share schemes",For employer enquiries on Share Schemes,,"businesses & corporations > All businesses
employers > All employers",Tax,,,,,,,,,,,,,,,"8.30am to 5.00pm Monday to Thursday 
8.30am to 4.30pm Friday 
Closed weekends and bank holidays",0845 600 2622,,,,,,+44 115 974 1250,,,,,,,Share Scheme enquiries,For technical enquiries on Share Schemes,,http://www.hmrc.gov.uk/shareschemes/welcome.htm,,,,,"By submitting information to us directly by using special forms on our website your message is secure, but our email reply to you, which will be sent over the internet, is not. Information sent by email over the internet is not secure and is at risk of being intercepted and read by people other than those it was intended for. If our response to you contains any personal or confidential information we will only reply to you by letter or telephone. 

If you have any doubt about the authenticity of an email you receive which claims to have come from HMRC please do not follow any links within the email, disclose any personal details or respond to it. 

Follow the link below to report HMRC related phishing emails.",Reporting HMRC related phishing emails,,http://www.hmrc.gov.uk/security/reporting.htm,,,,"You can write to HMRC at:

Employee Shares & Securities Unit
1st Floor, Fitzroy House
Castle Meadow Road
Nottingham
NG2 1BD",,,,,,,,,,,,,enquiry,ncEqJKkqvLE,31/05/2013 14:58:24
14,"Employer enquiries
PAYE for employers (general enquiries)
Statutory payments enquiries","For employer enquiries on PAYE, NICs, Statutory payments, stakeholder pensions and student loan repayments",,employers > All employers,Tax,,,First report - checking your payroll records match with HMRC's,What employers must do to get their employee data matched with HMRC's records,http://www.hmrc.gov.uk/payerti/reporting/payroll-alignment.htm,Filing your Employer Annual Return (P35 and P14s) for 2012-13,Guidance on completing form P35 & starting to operate PAYE in real time for 2013-14.,http://hmrc.gov.uk/payerti/end-of-year/from-bau-to-rti.htm,,Preparing to operate PAYE in real time,All you need to get started with PAYE real time ? registering as an employer and starting to run a payroll.,http://www.hmrc.gov.uk/payerti/getting-started/index.htm,Employer Helpline,"Expert advice for employers on: 
-  PAYE in real time including Statutory Sick Pay, Adoption, Maternity, Paternity and Additional  Paternity Pay
-  stakeholder pensions, student loan repayments and the Construction Industry Scheme
You need your employer reference number when you call. By choosing the correct numbered option you will speak to the appropriate advisor more quickly.","8.00 am to 8.00 pm, Monday to Friday
8.00 am to 4.00 pm Saturday

Closed Sundays, Christmas Day, Boxing Day and New Year's Day",0300 200 3200,,,,,0300 200 3212,,0191 225 6677,"Employees seeking advice on their own tax affairs should contact their HMRC office (as shown on our most recent correspondence to them). If they don't have recent correspondence from us, follow the link below for HMRC contact details for individuals, pensioners and employees.","Income Tax enquiries for individuals, pensioners and employees",,http://search2.hmrc.gov.uk/kbroker/hmrc/contactus/search.ladv?raction=view&amp;fl0=__dsid%3A&amp;sm=0&amp;ha=34&amp;as=1&amp;sf=&amp;sp_scope=hmrc&amp;cs=ISO-8859-1&amp;tx0=49612,,,,,,,,,,,,,,,,,,,,,,"Employers can write to HMRC at the following address:

Customer Operations Employer Office
BP4009
Chillingham House
Benton Park View
Newcastle Upon Tyne
NE98 1ZZ

Please send forms P11D Expenses Payments and Benefits 2012-2013 to the following address: 

HMRC NIC&EO
Room BP2101
Lindisfarne House
Benton Park View
Longbenton
Newcastle Upon Tyne
NE98 1ZZ",,,,,,,,enquiry,yg7jCcYewik,31/05/2013 14:58:24
15,Deceased Estate Helpline,For specialist advice about Income Tax and Capital Gains Tax on a deceased person's estate,,"individuals & employees > Bereavement
individuals & employees > All individuals",Tax,,,,,,,,,,,,,Deceased Estate Helpline,General advice and information about Income Tax and Capital Gains Tax on deceased estates.,"9.00 am to 5.00 pm, Monday to Friday
Closed bank holidays (including Scottish bank holidays)",0845 604 6455,,,,,,,,"This helpline is part of HMRC Trusts and Estates. When you call this number, please choose option 4 to speak to an adviser about deceased estate queries. 

For specific enquiries concerning your tax affairs, or those of the deceased, you should contact the relevant HMRC Office. Follow the relevant helpline from the main 'Contact Us' index page. 

If you have a question about Inheritance Tax or probate call the helpline",Probate and Inheritance Tax Helpline,,http://search2.hmrc.gov.uk/kbroker/hmrc/contactus/search.ladv?ha=34&amp;tx0=49659&amp;fl0=__dsid:&amp;tx1=2037&amp;raction=view,,,,,,,,,,,,,,,,,,,,,,,,,,,,,,enquiry,cmXEoE54mW0,31/05/2013 14:58:24
16,Enquiries from employers with expatriate employees,Advice for employers (usually multi-national organisations) who employ non-UK expatriates,,employers > All employers,Tax,,,Find contact details of our Expatriate Teams,"Contact details for the Expatriate Team, what we do and who the team will deal with",http://www.hmrc.gov.uk/menus/expat_teams.htm,,,,,,,,,,"8.30 am to 5.00 pm, Monday to Friday 
Closed weekends and bank holidays",03000 533 148,,,,,,,0161 261 3198,Contact details for the Expatriate Team who handle the tax affairs of non-UK expatriate employees - normally people working for multi-national organisations who are seconded or assigned to the UK.,,,,,,,,,,,,,,,,,,,,"HMRC Personal Tax International
Operations, SO733
PO Box 203
Bootle
L69 9AP",,,,,,,,,,,,,enquiry,kfOfd8vpeYA,04/07/2013 09:12:07
17,"Non-UK resident entertainers
Foreign Entertainers Unit",For non-UK resident entertainers or sportspeople who perform in the UK,,individuals & employees > All individuals,Tax,,,Information for non-UK resident entertainers and sportspeople,Information for non-UK resident entertainers and sportspeople,http://www.hmrc.gov.uk/feu/index.htm,,,,,,,,Foreign Entertainers Unit,For non-UK resident entertainers or sportspeople who perform in the UK and anyone who makes payments to them,"8.00 am to 5.00 pm, Monday to Friday 
Closed weekends and bank holidays",0300 054 7395,,,,,,+44 0300 054 7395,+44 151 472 6483,,,,,,,,,,,,,,,,,,,,You can write to HMRC using the postal address below.,"Foreign Entertainers Unit written enquiries
St John's House
Merton Road
Liverpool
L75 1BB",,,,,,,,,,,,,enquiry,Oqrg4PZVdc8,31/05/2013 14:58:25
19,Individual Savings Accounts (ISA) enquiries,Information about tax rules on ISAs,,"individuals & employees > Self-employed
individuals & employees > All individuals",Tax,,,,,,,,,,Find out more about Junior Individual Savings Accounts on GOV.UK website,,https://www.gov.uk/junior-individual-savings-accounts,ISA Helpline,"For general enquiries about tax rules on ISAs and more information on Junior ISAs

Individual Savings Account Helpline is part of the Savings Helpline","8.00 am to 8.00 pm, Monday to Friday
8.00 am to 4.00 pm Saturday",0845 604 1701,,,,,,,,,,,,,,,,,,,,,,,,,,,,,,,,,,,,,,,,,enquiry,agUO91tWzfU,31/05/2013 14:58:25
20,International assistance for overseas tax administrations,Responsible for co-ordinating technical assistance programmes for overseas tax administrations,,,See also,,,,,,,,,,,,,,,,,,,,,,,,,,,,"If you are interested in using the expertise of officers in HM Revenue and Customs to work on international projects overseas, please contact International Relations and Capacity Building team who coordinate and consider such requests. For further information please contact:",Danny PedleyInternational Relations & Capacity Building,,Daniel.pedley@hmrc.gsi.gov.uk,,,,,,"We cannot guarantee the security of emails you send to us or we send to you over the internet. Information sent by email over the internet is not secure and it is at risk of being intercepted and read by people other than those it was intended for. Any information you send to us by email is at your own risk. If you would like us to reply by email, please confirm in your message that you understand and accept the risks involved. However, if our response to you contains any personal or confidential information we will only reply to you by letter or telephone.

If you have any doubt about the authenticity of an email you receive which claims to come from HMRC please do not follow any links within the email, disclose any personal details or respond to it. Forward it to us at:
phishing@hmrc.gsi.gov.uk",Reporting HMRC related phishing emails,,http://www.hmrc.gov.uk/security/reporting.htm,International Relations and Capacity Building,,,"1st Floor (Hatfields)
Dorset House
27-45 Stamford Street
London
SE1 9PY",,,,,,,,,,,,,enquiry,byyk3qVbt6k,31/05/2013 14:58:23
21,"Customs, International Trade & Excise enquiries
Imports
Excise duties
Exports
International trade - imports and exports","For enquiries relating to importing, exporting and Customs Relief",,"individuals & employees > All individuals
businesses & corporations > All businesses","VAT, Customs, Excise duties",,,,,,,,,,Check import and export information on the GOV.UK website,"You'll find simplified import and export information and interactive tools, including the UK Trade Tariff on the GOV.UK website.",http://www.businesslink.gov.uk/bdotg/action/layer?r.s=tl&topicId=1079717544,Excise and Customs Helpline,For Excise Duties and customs telephone enquiries,"8.00 am to 6.00 pm, Monday to Friday 
Closed weekends and bank holidays",0300 200 3700,,,,,0300 200 3719,,,,,,,,Online enquiry form for customs,,,http://www.hmrc.gov.uk/contactus/customs.htm,Online enquiry form for excise,,,http://www.hmrc.gov.uk/contactus/excise.htm,"You can email HMRC if your have a customs related enquiry:
- Importing and exporting from outside the EU
- Customs Relief 
- Movement of goods within the EU 
- Travelling to the UK including duty free allowances  
- any other customs matter 

You can also email HMRC if you have an excise related enquiry:
- The production and movement of alcohol and tobacco products
- Hydrocarbon oils
- Betting and gambling duties 
- Environmental taxes 
- any other excise matter

Please include your VAT registration number if applicable and the name and address of your business. 

We cannot guarantee the security of emails you send to us or we send to you over the internet. Information sent by email over the internet is not secure and it is at risk of being intercepted and read by people other than those it was intended for. Any information you send to us by email is at your own risk. If you would like us to reply by email, please confirm in your message that you understand and accept the risks involved. However, if our response to you contains any personal or confidential information we will only reply to you by letter or telephone. 

If you have any doubt about the authenticity of an email you receive which claims to come from HMRC please do not follow any links within the email, disclose any personal details or respond to it. 

Follow the link below to report HMRC related phishing emails.",Reporting HMRC related phishing emails,,http://www.hmrc.gov.uk/security/reporting.htm,,,"For postal enquiries relating to importing, exporting, Customs Relief and excise matters","CITEX Written Enquiry Team 
HM Revenue & Customs 
Crownhill Court
Tailyour Road
Plymouth
PL6 5BZ",,,,,Please include your VAT registration number if applicable and the name and postal address of your business.,,,,,,,,enquiry,iQ9MFQAxnZk,24/06/2013 09:29:16
22,IR35 enquiries,For general enquiries about the IR35 intermediaries legislation,,"individuals & employees > Self-employed
individuals & employees > All individuals
employers > All employers",See also,,,,,,,,,,,,,IR35 Helpline,For customers who have enquiries about the intermediaries (IR35) legislation,"8.30 am to 4.30 pm, Monday to Friday
Closed weekends and bank holidays",0845 303 3535,,,,,,,0845 302 3535,,,,,Email us if you have enquiries about the intermediaries (IR35) legislation,For general ir35 enquiries,,ir35@hmrc.gov.uk,,,,,,"We cannot guarantee the security of emails you send to us or we send to you over the internet. Information sent by email over the internet is not secure and it is at risk of being intercepted and read by people other than those it was intended for. Any information you send to us by email is at your own risk. If you would like us to reply by email, please confirm in your message that you understand and accept the risks involved. However, if our response to you contains any personal or confidential information we will only reply to you by letter or telephone. 

If you have any doubt about the authenticity of an email you receive which claims to come from HMRC please do not follow any links within the email, disclose any personal details or respond to it. 

Follow the link below to report HMRC related phishing emails.",Reporting HMRC related phishing emails,,http://www.hmrc.gov.uk/security/reporting.htm,IR35 written enquiries,,,"IR35 Customer Service Unit 
Ground Floor North 
Princess House 
Cliftonville Road 
Northampton
NN1 5AE",,,,,,,,,Post address added 20/11/09 & open times changed.,,,,enquiry,SAyAkSQzFSo,31/05/2013 14:58:25
23,Money laundering,Report suspicious transactions,,businesses & corporations > All businesses,See also,,,Report a suspicious transaction or activity,How to report a transaction you suspect of money laundering or a business you think should be registered under Money Laundering Regulations,http://www.hmrc.gov.uk/mlr/reportsuspicion.htm,Register with HMRC for Money Laundering Regulations,"Do you have to register with HMRC, how to register, including the 'fit and proper test' and what happens if you don't",http://www.hmrc.gov.uk/mlr/getstarted/register,,,,,VAT and Excise Helpline,If you can't find the answer to your question about money laundering on HMRC website you can call the VAT and Excise Helpline.,"8.00 am to 6.00 pm, Monday to Friday
Closed weekends and bank holidays",0300 200 3700,,,,,0300 200 3719,,,,,,,,For email enquiries about Money Laundering Regulations @,,MLRCIT@hmrc.gsi.gov.uk,,,,,,"We cannot guarantee the security of emails you send to us or we send to you over the internet. Information sent by email over the internet is not secure and it is at risk of being intercepted and read by people other than those it was intended for. Any information you send to us by email is at your own risk. If you would like us to reply by email, please confirm in your message that you understand and accept the risks involved. However, if our response to you contains any personal or confidential information we will only reply to you by letter or telephone. 

If you have any doubt about the authenticity of an email you receive which claims to come from HMRC please do not follow any links within the email, disclose any personal details or respond to it. 

Follow the link below to report HMRC related phishing emails.",Reporting HMRC related phishing emails,,http://www.hmrc.gov.uk/security/reporting.htm,,,,,,,,,,,,,,,,,enquiry,p9pDx-33SE0,24/06/2013 10:27:04
24,National Insurance deficiency enquiries,Information about gaps in your National Insurance record and paying voluntary National Insurance contributions,,"individuals & employees > Self-employed
individuals & employees > All individuals
individuals & employees > Employed",National Insurance,,,'Gap in your National Insurance' letter,"Find out what to do if you get a 'Gap in your National Insurance letter' and what to do about it, including what to do if there is a mistake",http://www.hmrc.gov.uk/ni/volcontr/gapletter.htm,Voluntary Class 3 National Insurance,Find out about ways you can pay your voluntary Class 3 National Insurance,http://www.hmrc.gov.uk/payinghmrc/class3nics.htm,,,,,National Insurance - Deficiency Notice Helpline,"If you have been notified that you may have a shortfall in your National Insurance contributions we can discuss with you how the shortfall has been calculated, and how to query the amount of the shortfall. We also provide information about the Home Responsibilities Protection Scheme (HRP) or from 6 April 2010, the new Parents and Carers credits. 

The helpline cannot give customers an estimate of their State Pension. State Pension statements ? find out more about getting an estimate by following the State Pension statement link below.","8.30 am to 5.00 pm, Monday to Friday
8.00 am to 4.00 pm Saturday
Closed Sundays and bank holidays",0300 200 3503,,,,,0845 915 3296,,,,State Pension statement,,https://www.gov.uk/state-pension-statement,Use the HM Revenue & Customs (HMRC) email service,Tell HMRC about a change of name or address,,,http://www.hmrc.gov.uk/individuals/change-of-circs.htm,,,,,"By submitting information to us directly by using special forms on our website your message is secure, but our email reply to you, which will be sent over the internet, is not. Information sent by email over the internet is not secure and is at risk of being intercepted and read by people other than those it was intended for. If our response to you contains any personal or confidential information we will only reply to you by letter or telephone. 

If you have any doubt about the authenticity of an email you receive which claims to have come from HMRC please do not follow any links within the email, disclose any personal details or respond to it. 

Follow the link below to report HMRC related phishing emails.",Reporting HMRC related phishing emails,,http://www.hmrc.gov.uk/security/reporting.htm,,,,,,,,,,,,,,,,,enquiry,yNi35JhBri0,13/06/2013 08:02:15
25,National Insurance enquiries for employees and individuals,"Enquiries relating to National Insurance rates and thresholds, Statutory Payments, etc",,"individuals & employees > Bereavement
individuals & employees > All individuals
individuals & employees > Employed",National Insurance,,,Employee tax and National Insurance,Find out how your salary is taxed and how much you can earn before you start paying tax and National Insurance,http://www.hmrc.gov.uk/working/intro/employed.htm,National Insurance rates and thresholds,"A quick link to previous, current and next year National Insurance rates and thresholds",http://www.hmrc.gov.uk/rates/nic.htm,,,,,National Insurance enquiries,"For enquiries relating to:
- Class 1 National Insurance rates and thresholds
- Statutory Payments
- Age exception certificates (form CA4140)  
- Home Responsibilities Protection criteria / Parents and Carers Credits  
- Married Women's Reduced Rate Election 
- National Insurance statement requests
- Class 3 National Insurance enquiries

The helpline cannot give customers an estimate of their State Pension.  State Pension statements ? find out more about getting a statement by following the State Pension statements link below.","8.00 am to 5.00 pm, Monday to Friday
Closed weekends and bank holidays",0300 200 3500,,,,,0845 915 3296,,,,State Pension statement,,https://www.gov.uk/state-pension-statement,Use the HM Revenue & Customs (HMRC) email service,Tell HMRC about a change of name or address,,,http://www.hmrc.gov.uk/individuals/change-of-circs.htm,,,,,"By submitting information to us directly by using special forms on our website your message is secure, but our email reply to you, which will be sent over the internet, is not. Information sent by email over the internet is not secure and is at risk of being intercepted and read by people other than those it was intended for. If our response to you contains any personal or confidential information we will only reply to you by letter or telephone. 

If you have any doubt about the authenticity of an email you receive which claims to have come from HMRC please do not follow any links within the email, disclose any personal details or respond to it. 

Follow the link below to report HMRC related phishing emails.",Reporting HMRC related phishing emails,,http://www.hmrc.gov.uk/security/reporting.htm,,,,,,,,,,,,,,,,,enquiry,Kybg-pFAYcQ,13/06/2013 07:59:54
26,"National insurance enquiries for non-UK residents
Non-UK residents - National Insurance enquiries",Enquiries relating to National Insurance and health care provision for people under State Pension age living abroad,,individuals & employees > All individuals,National Insurance,,,Tax and National Insurance information for non-UK residents,"Find out about tax, National Insurance and how 'residence' and 'domicile' might affect your UK tax",http://www.hmrc.gov.uk/international/personal.htm,,,,,,,,National Insurance Helpline for non-UK residents,"This helpline answers queries regarding National Insurance status entitlements and health care provisions, for people under State Pension age who live or work abroad. 

The helpline cannot provide State Pension statements if you live outside the UK. If you live outside the UK and would like a State Pension statement, call the Future Pension Centre by following the link below.","8.30 am to 5.00 pm, Monday to Friday
Closed weekends and bank holidays",0300 200 3506,,,,,,+44 191 203 7010,,,Future Pension Centre,,https://www.gov.uk/future-pension-centre,Use the HM Revenue & Customs (HMRC) email service,Tell HMRC about a change of name or address,,,http://www.hmrc.gov.uk/individuals/change-of-circs.htm,,,,,"By submitting information to us directly by using special forms on our website your message is secure, but our email reply to you, which will be sent over the internet, is not. Information sent by email over the internet is not secure and is at risk of being intercepted and read by people other than those it was intended for. If our response to you contains any personal or confidential information we will only reply to you by letter or telephone. 

If you have any doubt about the authenticity of an email you receive which claims to have come from HMRC please do not follow any links within the email, disclose any personal details or respond to it. 

Follow the link below to report HMRC related phishing emails.",Reporting HMRC related phishing emails,,http://www.hmrc.gov.uk/security/reporting.htm,,,,"National Insurance Contributions Office  
International Caseworker
Longbenton
Newcastle Upon Tyne 
NE98 1ZZ
United Kingdom",,,,,,,,,,,,,enquiry,OLul3tPejl4,13/06/2013 08:05:39
27,"National Insurance enquiries for the self-employed
Self-employed National Insurance enquiries",Information and assistance with National Insurance for self-employed people,,"individuals & employees > Self-employed
individuals & employees > All individuals
businesses & corporations > All businesses",National Insurance,,,Self-employed tax and National Insurance,"Find out how to register with HMRC when you start a business, basic information on Self-Assessment, National Insurance, VAT and record keeping",http://www.hmrc.gov.uk/working/intro/selfemployed.htm,How to pay Class 2 National Insurance,Find out more information on the available options for making self-employed Class 2 National Insurance,http://www.hmrc.gov.uk/payinghmrc/class2nics.htm,,,,,National Insurance Self-Employed Helpline,"For assistance with:
- Class 2 six monthly bill queries
- Class 3 quarterly bill queries
- Direct Debit queries 
- Changes of payment method
- Small Earnings Exception
- Changes in self-employment status including ceasing self-employment

The helpline can't provide you with an Unique Tax reference number. You will find it on any Self Assessment letters or you will need to contact your HMRC Office by following the Contact us link below.","8.30 am to 5.00 pm, Monday to Friday
Closed weekends and bank holidays",0300 200 3505,,,,,0845 915 3296,,,,Contact us,,http://search2.hmrc.gov.uk/kbroker/hmrc/contactus/search.ladv?ha=34&amp;tx0=49615&amp;fl0=__dsid:&amp;tx1=2037&amp;raction=view,Use the HM Revenue & Customs email service,Tell HMRC about a change of name or address,,,http://www.hmrc.gov.uk/individuals/change-of-circs.htm,Tell HMRC if you've stopped being self-employed,,,http://www.hmrc.gov.uk/dealingwith/changes/close-sell-business.htm,"By submitting information to us directly by using special forms on our website your message is secure, but our email reply to you, which will be sent over the internet, is not. Information sent by email over the internet is not secure and is at risk of being intercepted and read by people other than those it was intended for. If our response to you contains any personal or confidential information we will only reply to you by letter or telephone. 

If you have any doubt about the authenticity of an email you receive which claims to have come from HMRC please do not follow any links within the email, disclose any personal details or respond to it. 

Follow the link below to report HMRC related phishing emails.",Reporting HMRC related phishing emails,,http://www.hmrc.gov.uk/security/reporting.htm,,,,,,,,,,,,,,,,,enquiry,ZoK0gKwCs5Q,13/06/2013 08:04:19
28,National Insurance registrations,Advice and assistance to young people who haven't received their National Insurance number. They can also help if you've lost or can't remember your National Insurance number or lost your National Insurance number card.,,"individuals & employees > Self-employed
individuals & employees > All individuals",National Insurance,,,Applying for a National Insurance number,"Find out how to get a National Insurance number, when you'll need one, what to do if you don't receive yours or forget or loose it",http://www.hmrc.gov.uk/ni/intro/number.htm,National Insurance - the basics,"Information on who pays National Insurance, why you pay it and how",http://www.hmrc.gov.uk/ni/intro/basics.htm,,,,,National Insurance Registrations Helpline,"The helpline provides advice to young people aged between 15 years and 9 months and 20 years old who haven't received a National Insurance number.

They can also help if you've lost or can't remember your National Insurance number or lost your National Insurance number card and issue letters of confirmation of National Insurance numbers. 

HMRC no longer issue National Insurance cards.  You don?t need to have a card ? it?s the number that?s important.  If you can?t remember your number, find out what to do by following the link at the top of the page ?Applying for a National Insurance number'.","8.30 am to 5.00 pm, Monday to Friday
Closed weekends and bank holidays",0300 200 3502,,,,,0845 9153296,,,"We cannot allocate National Insurance numbers, arrange appointments with the Department for Work and Pensions to apply for a National Insurance number, or confirm a National Insurance number over the telephone.",,,,,,,,,,,,,,,,,,,,,,,,,,,,,,,,,enquiry,3I1k4cSdFX0,13/06/2013 08:01:35
30,"National minimum wage enquiries and complaints
Minimum wage enquiries
Pay and Work Rights Helpline",For help and advice about the national minimum wage,,"individuals & employees > All individuals
employers > All employers",Tax,,,National minimum wage - guidance for employers,"Find out who's entitled to the minimum wage, rates explained, which payments count towards it and your record keeping",http://www.hmrc.gov.uk/paye/payroll/day-to-day/nmw.htm,National minimum wage - guidance for individuals,"Find out about National minimum wage on GOV.UK website, what the current rates are and where to get help if you are being paid below the minimum wage rate",https://www.gov.uk/your-right-to-minimum-wage,,,,,Pay and Work Rights Helpline,Help and advice for employees and employers on the rules of the National minimum wage. We also deal with complaints from workers who are being paid below the threshold.,"8.00 am to 8.00 pm, Monday to Friday
9.00 am to 1.00 pm Saturday 
Closed Sundays and bank holidays",0800 917 2368,,,,,0800 121 4042,,,,,,,,,,,,,,,,,,,,,,,"National minimum wage enquiries 
Freepost PHQ1
Newcastle Upon Tyne 
NE98 1ZH",,,,,,,,,,,,,enquiry,lZSp3XtWUIo,31/05/2013 14:58:23
31,National statistics enquiries,For national statistics enquiries,http://www.hmrc.gov.uk/stats/update_calendar/enquiry_2.htm,,See also,,,,,,,,,,,,,,,,,,,,,,,,,,,,,,,,,,,,,,,,,,,,,,,,,,,,,,,,,enquiry,d5XApz4DGGE,31/05/2013 14:58:23
32,"National Yachtline
Yachtline",For information about sailing your yacht or pleasurecraft to and from the UK,,individuals & employees > All individuals,See also,,,Find out if you need to let Customs know of your arrival in the UK,,http://customs.hmrc.gov.uk/channelsPortalWebApp/channelsPortalWebApp.portal?_nfpb=true&_pageLabel=pageVAT_ShowContent&id=HMCE_CL_000289&propertyType=document,,,,,,,,National Yachtline,When arriving in the UK direct from a country outside the EU (the Channel Islands are regarded as outside the EU for this purpose) you must telephone the National Yachtline.,"24 hours a day, seven days a week",0845 723 1110,,,,,,,,,,,,,,,,,,,,,,,,,,,,,,,,,,,,,,,,,enquiry,X7b2_BQXOaQ,31/05/2013 14:58:23
33,"New Computerised Transit System - Online Services Helpdesk
Online Services Helpdesk - New Computerised Transit System",For help and assistance using the New Computerised Transit System,,businesses & corporations > All businesses,See also,,,,,,,,,,,,,Online Services Helpdesk - NCTS (New Computerised Transit System),For help and assistance using the New Computerised Transit System,"8.00 am to 5.00 pm, Monday to Friday
Closed weekends and bank holidays",0300 200 3701,,,,,,,,,,,,,Online Services Helpdesk @,,ncts.helpdesk@hmce.gsi.gov.uk,,,,,,"We cannot guarantee the security of emails you send to us or we send to you over the internet. Information sent by email over the internet is not secure and it is at risk of being intercepted and read by people other than those it was intended for. Any information you send to us by email is at your own risk. If you would like us to reply by email, please confirm in your message that you understand and accept the risks involved. However, if our response to you contains any personal or confidential information we will only reply to you by letter or telephone. 

If you have any doubt about the authenticity of an email you receive which claims to come from HMRC please do not follow any links within the email, disclose any personal details or respond to it. 

Follow the link below to report HMRC related phishing emails.",Reporting HMRC related phishing emails,,http://www.hmrc.gov.uk/security/reporting.htm,,,,,,,,,,,,,,,,,enquiry,_f5Ld1KldlM,24/06/2013 09:35:29
34,"Employer enquiries - support for new employers
Employer (New) enquiries",To register as a new employer or contractor and for enquiries as a new employer,,"employers > New employers
employers > All employers",Tax,,,New employer - getting started,"Your responsibilities as a new employer, including payroll, payments to HMRC and employment rights.",http://www.hmrc.gov.uk/payerti/getting-started/new-employer.htm,Taking on a new employee - first steps,Checks you must make to ensure new employees are entitled to work in the UK and vital information to get before paying them.,http://www.hmrc.gov.uk/payerti/employee-starting/new-employee.htm,,,,,New Employer Helpline,"Expert advice for new employers on: 
?  PAYE in real time including Statutory Sick Pay, Maternity and Paternity Pay
?  stakeholder pensions, student loan repayments and the Construction Industry Scheme
You need your employer reference number with you when you phone. By choosing the correct numbered option you will speak to the most appropriate adviser more quickly.","8.00 am to 8.00 pm, Monday to Friday
8.00 am to 4.00 pm Saturday
Closed Sundays, Christmas Day, Boxing Day and New Year's Day",0300 200 3211,,,,,0300 200 3212,,0191 225 6677,"Employees seeking advice on their own tax affairs should contact their HMRC Office (as shown on our most recent correspondence to them). If they don't have recent correspondence from us, follow the link below for HMRC contact details for individuals, pensioners and employees.","Income Tax enquiries for individuals, pensioners and employees",,http://search2.hmrc.gov.uk/kbroker/hmrc/contactus/search.ladv?raction=view&amp;fl0=__dsid%3A&amp;sm=0&amp;ha=34&amp;as=1&amp;sf=&amp;sp_scope=hmrc&amp;cs=ISO-8859-1&amp;tx0=49612,,,,,,,,,,,,,,,,,,,,,,"Employers can write to HMRC at the following address:

Customer Operations Employer Office
BP4009
Chillingham House
Benton Park View
Newcastle Upon Tyne
NE98 1ZZ",,,,,,,,enquiry,PXkbJ3Oml5Q,31/05/2013 14:58:25
35,"Online Services Helpdesk
Self Assessment - Online Services Helpdesk
Helpdesk for Online Self Assessment","For enquiries with our online service including help with 'error messages' to file Self Assessment tax returns, PAYE for employers, Corporation Tax, stamp taxes, pension schemes or any other online service",,"individuals & employees > Self-employed
individuals & employees > All individuals
businesses & corporations > All businesses
employers > All employers",Tax,,,Online service issues,Check current important HMRC Online service issues we are experiencing - including known error messages,http://customs.hmrc.gov.uk/channelsPortalWebApp/channelsPortalWebApp.portal?_nfpb=true&_pageLabel=pageOnlineServices_ShowContent&propertyType=document&id=HMCE_PROD1_028772,Service availability,Check the current availability of different HMRC Online services - including planned downtime,http://customs.hmrc.gov.uk/channelsPortalWebApp/channelsPortalWebApp.portal?_nfpb=true&_pageLabel=pageOnlineServices_ShowContent&propertyType=document&id=HMCE_MIG_009921,,What do my Basic PAYE Tools error messages mean?,Find out more about Basic PAYE Tools error messages,http://www.hmrc.gov.uk/payerti/troubleshoot/bpt-error-messages.htm,Online Services Helpdesk,"Online Services can help you with the following:   
- if you?re having a problem logging on or registering for an online service
- if you?re having problems submitting forms 
- if you?re receiving error messages in your online account or on HMRC forms   
- if you need technical help to download and use HMRC free software and tools  

Online Services cannot help with the following:
- specific enquiries relating to VAT, Excise duty, Income Tax and other associated taxes   
- provide you with User ID?s, Passwords or Activation PINs over the telephone
- advice on completing tax related questions within online forms
- online VAT services, if you need technical help follow the VAT Online Services Helpdesk link below    

To help us deal with your query, please have your HMRC reference number with you when you call, eg your Unique Taxpayer Reference or PAYE reference number.   

If your query is not technical related, please contact the relevant business area by following the ?Contact us? link on HMRC homepage.","8.00 am to 8.00 pm, Monday to Friday 
8.00 am to 4.00 pm Saturday

Closed Sundays, Christmas Day, Boxing Day and New Year?s Day",0300 200 3600,,,,,0300 200 3603,+44 161 930 8445,,,VAT Online Services Helpdesk,,http://search2.hmrc.gov.uk/kbroker/hmrc/contactus/search.ladv?ha=34&amp;tx0=49684&amp;fl0=__dsid:&amp;tx1=2037&amp;raction=view,,Email a technical help enquiry to the Online Services Helpdesk,,,http://www.hmrc.gov.uk/contactus/online-services.htm,,,,,"By submitting information to us directly by using special forms on our website your message is secure, but our email reply to you, which will be sent over the internet, is not. Information sent by email over the internet is not secure and is at risk of being intercepted and read by people other than those it was intended for. If our response to you contains any personal or confidential information we will only reply to you by letter or telephone. 

If you have any doubt about the authenticity of an email you receive which claims to have come from HMRC please do not follow any links within the email, disclose any personal details or respond to it. 

Follow the link below to report HMRC related phishing emails.",Security Advice,,http://www.hmrc.gov.uk/security/index.htm,,,,,,,,,,,,,,,,,enquiry,xezeYXCCQFU,31/05/2013 14:58:23
37,"Corporation Tax forms ordering
Order Corporation Tax forms
Forms for Corporation Tax","For ordering copies of the Company Tax Return, the guide and supplementary pages",,businesses & corporations > All businesses,Tax,,,Corporation Tax online forms ordering,"For ordering copies of the Company Tax Return, the guide and supplementary pages",http://www.hmrc.gov.uk/contactus/staustellform.htm,,,,,,,,Corporation Tax Forms Orderline,"To order copies of the Company Tax Return, the guide and supplementary pages call the orderline","8.00 am to 8.00 pm, Monday to Friday 
8.00 am to 4.00 pm Saturday 
Closed Sundays, Christmas Day, Boxing Day and New Years Day.",0845 300 6555,,,,,,+44 161 930 8331,0845 300 6777,,,,,,,,,,,,,,,,,,,,,,,,,,,,,,,,,,enquiry,9o_jnlp734Q,31/05/2013 14:58:25
38,"Employer stationery and forms ordering
Orderline for employer forms and publications
Forms and publications for employers",For Employers who cannot download forms and publications from the HMRC website,,employers > All employers,Tax,,,"Forms, publications, download area and online ordering service",The majority of forms and publications for employers are available for download from our website and employers are expected to self-serve.,http://www.hmrc.gov.uk/payerti/forms-updates/forms-publications.htm,,,,,,,,Employer Orderline,"If exceptionally you are unable to download from our website please call the Employer Orderline. Please be aware however that the Orderline holds limited stock and the number of copies which can be ordered is restricted. If you cannot download from the internet but can access forms and publications from a disc please tell the Orderline adviser. 

If your order hasn't arrived within seven working days, or you have a query relating to the Orderline, please ring the number below, quoting your order number.   

To avoid unnecessary delay you may want to avoid our busiest times: these are normally between 10.00 am and 12.00 noon on Mondays and at the start of the tax year (6th April).","8.00 am to 6.00 pm, Monday to Friday
Closed Saturday, Sunday, Christmas Day, Boxing Day and New Years Day.",08457 646 646,,,,,0800 95 95 98,,,,,,,,,,,,,,,,,,,,,,,,,,,,,,,,,,,,enquiry,E-XoEk1ZrZk,31/05/2013 14:58:23
40,"Self Assessment forms ordering
Order Self Assessment forms
Forms for Self Assessment",If you need to order extra pages for the main tax return,,"individuals & employees > Self-employed
individuals & employees > All individuals
businesses & corporations > All businesses",Tax,,,Online ordering service,"For ordering extra pages of the main tax return, help sheets and leaflets giving more detailed information about particular tax rules",http://www.hmrc.gov.uk/contactus/staustellform.htm,,,,,,,,Self Assessment Orderline,"For ordering extra pages of the main tax return, help sheets and leaflets giving more detailed information about particular tax rules","8.00 am to 8.00 pm, Monday to Friday 
8.00 am to 4.00 pm Saturday 
Closed Sundays, Christmas Day, Boxing Day and New Year's Day",0845 900 0404,,,,,,+44 161 930 8331,0845 900 0604,,,,,,,,,,,,,,,,,,,,,,,,,,,,,,,,,,enquiry,vgbDXPRFwl8,31/05/2013 14:58:25
41,"Stamp Duty Land Tax forms ordering
Order Stamp Duty Land Tax forms
Forms for Stamp Duty Land Tax",Order Stamp Duty Land Tax forms and payslips,,businesses & corporations > All businesses,Tax,,,Order forms and payslips online,For ordering Stamp Duty Land Tax forms and payslips,http://www.hmrc.gov.uk/contactus/staustellform.htm,,,,,,,,Stamp Duty Land Tax Orderline,To order Stamp Duty Land Tax forms and payslips call the Orderline,"8.00 am to 8.00 pm, Monday to Friday 
8.00 am to 4.00 pm Saturday 
Closed Sundays, Christmas Day, Boxing Day and New Years Day.",0845 302 1472,,,,,,,,,,,,,,,,,,,,,,,,,,,,,,,,,,,,,,,,,enquiry,pZE1Z_LnLbY,31/05/2013 14:58:25
42,Pension scheme enquiries,For enquiries from pension scheme administrators and pension providers,,"businesses & corporations > All businesses
businesses & corporations > Pension schemes
employers > All employers",Tax,,,Pension Scheme Services,,http://www.hmrc.gov.uk/pensionschemes/index.htm,,,,Guidance on the tax rules for pension schemes,,,,Pension Schemes Services Helpline,"Enquiries about the tax rules for operating pension schemes.
This helpline can't answer questions or give information about:
- how your individual pension has been taxed or how to reclaim overpaid tax
- State Pension 
- how much pension you have under a particular pension scheme  
- your National Insurance contributions
- a specific pension scheme - including scheme reference numbers - unless you're the pension scheme administrator or the administrator has given Pension Schemes Services written permission to give you information","9.00 am to 5.00 pm, Monday to Friday
Closed weekends and bank holidays",0845 600 2622,,,,,,+44 115 974 1600,,"If your enquiry isn't about how the tax rules operate for pension schemes, see the 'Contacts for pensions' page.",Contacts for pensions,,http://search2.hmrc.gov.uk/kbroker/hmrc/contactus/search.ladv?sr=0&amp;as=1&amp;cs=ISO-8859-1&amp;sc=hmrc&amp;sm=0&amp;nh=50&amp;ha=34&amp;sb=2&amp;fl1=affinity%3A&amp;op1=1&amp;ty1=0&amp;tx1=2028,,Pension Schemes Services - email enquiries.,,,https://online.hmrc.gov.uk/shortforms/form/PSH_General?dept-name=Pension_Services&sub-dept-name=&location=36&origin=http://www.hmrc.gov.uk,,,,,"This allows you to send a secure enquiry online. Email responses from HM Revenue & Customs (HMRC) aren't secure and won't contain confidential information - if necessary they'll contact you by phone or letter. 

If you have any doubt about the authenticity of an email you receive which claims to have come from HMRC please do not follow any links within the email, disclose any personal details or respond to it. 

Follow the link below to report HMRC related phishing emails",Reporting HMRC related phishing emails,,http://www.hmrc.gov.uk/security/reporting.htm,,For written enquiries regarding the tax rules for operating pension schemes.,,"Pension Schemes Services
FitzRoy House
Castle Meadow Road
Nottingham
NG2 1BD",,,,,,,,,,,,,enquiry,LYtbvoGmT5k,31/05/2013 14:58:25
43,"Online Services Helpdesk - Pension scheme forms and returns
Pension scheme forms and returns - Online Services Helpdesk",For enquiries with our online service including help with 'error messages' to submit pension scheme forms and returns,,"businesses & corporations > All businesses
businesses & corporations > Pension schemes
employers > All employers",See also,,,,,,,,,,,,,Online Services Helpdesk - pension schemes,If you need help and assistance filing pension scheme forms and returns online please call the Online Services Helpdesk,"8.00 am to 8.00 pm, Monday to Friday 
8.00 am to 4.00 pm Saturday 
Closed Sundays, Christmas Day, Boxing Day and New Year?s Day",0300 200 3600,,,,,,,,,,,,,,,,,,,,,,,,,,,,,,,,,,,,,,,,,enquiry,LrRcoJjaF1I,31/05/2013 14:58:25
44,Press Office,For all Press Office enquiries,http://www.hmrc.gov.uk/press/contact-press.htm,"employers
individuals & employees
businesses & corporations",See also,,,,,,,,,,,,,,,,,,,,,,,,,,,,,,,,,,,,,,,,,,,,,,,,,,,,,,,,,enquiry,PPyr-A8wDAk,31/05/2013 14:58:23
45,"Probate and Inheritance Tax enquiries
Inheritance Tax and Probate enquiries",Information on Probate and Inheritance Tax following a death,,"individuals & employees > Bereavement
individuals & employees > All individuals",Tax,,,Information about Inheritance Tax,Find out about Inheritance Tax and the probate process,http://www.hmrc.gov.uk/inheritancetax/intro/probate-process.htm,Information about estate valuation,How to value the estate of someone who has died,http://www.hmrc.gov.uk/inheritancetax/how-to-value-estate/index.htm,,,,,Probate and Inheritance Tax Helpline,"Help and advice on Probate and Inheritance Tax following a death. 

They can help you:
- understand your Inheritance Tax responsibilities and the procedures
- confirm the forms you need 
- get paper copies of forms
- complete Inheritance Tax forms 

They can not:
- comment on the Inheritance Tax implications of tax planning queries 
- comment on points of general law 
- confirm a person's residency status 
- advise on the wording of wills","9.00 am to 5.00 pm Monday to Friday
Closed weekends and bank holidays",0845 302 0900,,,,,,+44 115 974 3009,,"For specific enquiries concerning your tax affairs, or those of the deceased, please telephone the relevant HMRC Office.

Call the Deceased Estate Helpline for general advice and information about Income Tax and Capital Gains Tax on the deceased estate.",Deceased Estate Helpline,,http://search2.hmrc.gov.uk/kbroker/hmrc/contactus/search.ladv?ha=34&amp;tx0=49647&amp;fl0=__dsid:&amp;tx1=2037&amp;raction=view,,,,,,,,,,,,,,For written enquiries regarding Inheritance Tax,,,"HMRC Trusts & Estates
Inheritance Tax, 
Ferrers House, 
Castle Meadow Road
Nottingham
NG2 1BB",,,,,"If you write to us you will need to quote our reference number, or tell us the full name and date of death of the person who has died.

HMRC Inheritance Tax has specialist compliance offices in Edinburgh and Belfast. If your case is being dealt with by one of these offices, they will give you the correct address when they write to you. 

Payments
If you are paying Inheritance Tax by cheque you should send your payments to:

HMRC Banking 
St Mungo's Road 
Cumbernauld 
Glasgow
G70 5WY",,,,,,,,enquiry,Ve4W32E6kds,31/05/2013 14:58:26
46,"Register as a new employer
New employer registration",Send your details by email to register with HM Revenue & Customs as a new employer,,employers > All employers,Tax,,,How and when to register as a new employer,"Find out when you need to register with us, and how to go about doing so ? and when you don?t need to register",http://www.hmrc.gov.uk/paye/intro/register.htm,,,,,,,,,,,,,,,,,,,,,,,Send your details by email to register with HM Revenue & Customs as a new employer,Register as a new employer,,,http://www.hmrc.gov.uk/paye/intro/register-email.htm,,,,,"By submitting information to us directly by using special forms on our website your message is secure, but our email reply to you, which will be sent over the internet, is not. Information sent by email over the internet is not secure and is at risk of being intercepted and read by people other than those it was intended for. If our response to you contains any personal or confidential information we will only reply to you by letter or telephone. 

If you have any doubt about the authenticity of an email you receive which claims to have come from HMRC please do not follow any links within the email, disclose any personal details or respond to it. 

Follow the link below to report HMRC phishing emails.",Reporting HMRC related phishing emails,,http://www.hmrc.gov.uk/security/reporting.htm,,,,,,,,,,,,,,,,,enquiry,oxUth-4vOkw,31/05/2013 14:58:26
47,"Register to receive bank and building society interest without tax taken off
Bank and building society interest - without tax taken off
Claiming back tax deducted from bank and building society interest
Tax back on bank and building society interest
Savings Helpline
Registration Helpline",Check whether you should be receiving gross interest on your savings,,"individuals & employees > Self-employed
individuals & employees > All individuals",Tax,,,Tax on bank and building society accounts,How interest is taxed on your bank and building society accounts and how to get interest paid tax-free if your income is low,http://www.hmrc.gov.uk/taxon/bank.htm,Getting tax-free interest on savings or claiming tax back,How to claim back tax if your income is low and you've paid tax on savings with a bank or building society,http://www.hmrc.gov.uk/taxon/bank.htm,,,,,Savings Helpline,"The Savings Helpline stafff will help you:
?  decide whether you can register your account so interest is paid without tax taken off 
? complete form R85 'Getting your interest without tax taken off'","8.00 am to 8.00 pm, Monday to Friday 
8.00 am to 4.00 pm Saturday",0300 200 3312,The National Claims Office,"If you don't have a tax office, but you think you can claim back some or all of the tax taken off your interest please call the number below.","8.30 am to 5.00 pm, Monday to Friday 
Closed weekends and bank holidays",0300 200 3313,,,,"The helpline numbers are only for enquiries about bank and building society interest. If you want help on any other tax matter, contact  the appropriate office using the link below.",Contact us,,http://search2.hmrc.gov.uk/kbroker/hmrc/contactus/start.jsp,,,,,,,,,,,,,,,,,,,,,,,,,,,,,,enquiry,6h7eEMYuaLY,14/06/2013 07:37:16
48,"Report a benefit thief online
Benefit thief - report online",Report a benefit thief online,,individuals & employees > All individuals,See also,,,,,,,,,,,,,,,,,,,,,,,,,,,,If you suspect someone of benefit fraud please complete this form and send it to us in confidence,Report a benefit thief online form,,,https://secure.dwp.gov.uk/benefitfraud/,,,,,,,,,,,,,,,,,,,,,,,,,enquiry,0ldY9EPh4Kc,31/05/2013 14:58:23
49,"Reporting fraudulent emails
Fraudulent emails
Scam emails
Phishing emails",Tell us if you suspect you have received a fraudulent email that mentions HM Revenue & Customs,,"individuals & employees > All individuals
employers > All employers",See also,,,Information about fraudulent emails,Further information and how to recognise a fraudulent email,http://www.hmrc.gov.uk/security/spoofs.htm,,,,,,,,,,,,,,,,,,,,,,,"If you suspect you have received a fraudulent email please do not follow any links within the email, disclose any personal details or respond to it.",Reporting HMRC related phishing emails,,phishing@hmrc.gsi.gov.uk,,,,,,"We cannot guarantee the security of emails you send to us or we send to you over the internet. Information sent by email over the internet is not secure and it is at risk of being intercepted and read by people other than those it was intended for. Any information you send to us by email is at your own risk. If you would like us to reply by email, please confirm in your message that you understand and accept the risks involved. However, if our response to you contains any personal or confidential information we will only reply to you by letter or telephone. 

If you have any doubt about the authenticity of an email you receive which claims to come from HMRC please do not follow any links within the email, disclose any personal details or respond to it. 

Follow the link below to report HMRC related phishing emails.",Reporting HMRC related phishing emails,,http://www.hmrc.gov.uk/security/reporting.htm,,,,,,,,,,,,,,,,,enquiry,ocyTi4b2x8k,31/05/2013 14:58:24
51,Seafarers' - tax enquiries,"Tax enquiries relating to salary and income from customers working on a boat, ship, or cruiseliner",,individuals & employees > All individuals,Tax,,,,,,,,,,,,,Seafarers' Helpline,"If you are working on a boat, ship or cruiseliner and have any general tax queries relating to salary and Income Tax please call the Seafarers' Helpline - this helpline is part of the Taxes Helpline","8.00 am to 8.00 pm, Monday to Friday  
8.00 am to 4.00 pm Saturday 
Closed Sunday and bank holidays",0300 200 3300,,,,,,,,,,,,,Seafarers' email enquiries,,,https://online.hmrc.gov.uk/shortforms/form/SWA_Seafarers_SEF?dept-name=cnr&sub-dept-name=&location=26&origin=http://www.hmrc.gov.uk,,,,,"By submitting information to us directly by using special forms on our website your message is secure, but our email reply to you, which will be sent over the internet, is not. Information sent by email over the internet is not secure and is at risk of being intercepted and read by people other than those it was intended for. If our response to you contains any personal or confidential information we will only reply to you by letter or telephone. 

If you have any doubt about the authenticity of an email you receive which claims to have come from HMRC please do not follow any links within the email, disclose any personal details or respond to it. 

Follow the link below to report HMRC related phishing emails.",Reporting HMRC related phishing emails,,http://www.hmrc.gov.uk/security/reporting.htm,,,,,,,,,,,,,,,,,enquiry,o8ujznqmEBI,24/06/2013 09:22:46
52,"Self Assessment
Tax return enquiries",For advice completing your Self Assessment tax return and general advice about Self Assessment,,"individuals & employees > Self-employed
individuals & employees > All individuals
businesses & corporations > All businesses",Tax,,,Completing your tax return (individuals and directors),"Information you'll need to complete your tax return, key steps, common mistakes, where to get help",http://www.hmrc.gov.uk/sa/complete-tax-return.htm,Tax return corrections and repayment claims,"How to correct a mistake or make an amendment on a tax return, how to claim a tax refund or correct an underpayment or overpayment",http://www.hmrc.gov.uk/sa/correct-repay.htm,,,,,Self Assessment Helpline,"Help and advice for customers completing their tax return and supplementary pages, or who need general advice about Self Assessment
Please have your Unique Taxpayer Reference number with you when you phone","8.00 am to 8.00 pm, Monday to Friday 
8.00 am to 4.00 pm Saturday 
Closed Sundays, Christmas Day, Boxing Day and New Year's Day",0300 200 3310,,,,,0300 200 3319,+44 161 931 9070,,,,,,,,,,,,,,,,,,,,,,,,,,,"You can write to HMRC by using the postal address on the most recent correspondence from us.  

If you don't have recent correspondence from us then write to:

HM Revenue & Customs
Self Assessment
PO Box 4000
Cardiff
CF14 8HR

If you want to complain to HMRC about the service you have received in relation to Self Assessment, please clearly mark your letter as a complaint so we can direct it to a complaints handler quickly.",,,,,,,,enquiry,OILdX1VAnlM,14/06/2013 07:38:13
53,"Payment enquiry helpline
PAYE and Self Assessment payment enquiries
Self Assessment and PAYE payment enquiries",For advice on what payment methods can be used for Self Assessment and PAYE tax payments,,"individuals & employees > Self-employed
individuals & employees > All individuals
businesses & corporations > All businesses
employers > All employers",Tax,,,Paying HMRC,"Find out more about making a payment and what to do if you can't pay your Self Assessment, PAYE, Class 1 National Insurance or CIS.",http://www.hmrc.gov.uk/payinghmrc/,,,,,,,,"Paying HMRC Helpline (Self Assessment, PAYE and CIS Payment Enquiries)","For information and help on which payment method to use.
Please note we cannot take payments over the phone.","8.00 am to 8.00 pm, Monday to Friday
8.00 am to 4.00 pm Saturday
Closed Sundays and bank holidays

Please have your Accounts Office reference or Unique Tax Reference (UTR) to hand when calling.",0845 366 7816,Online Debit and Credit Card Payments - BillPay Helpline,"For help with BillPay error messages and to trace and confirm online debit and credit card payments. 
Please note we cannot take payments over the phone.","8.00 am to 5.00 pm, Monday to Friday
Closed weekends and bank holidays",0300 200 3601,,,,"If you're a Self Assessment taxpayer and experiencing payment difficulties, you should contact the Self Assessment Payment Helpline, using the link below.",Self Assessment Payment Helpline.,,http://search2.hmrc.gov.uk/kbroker/hmrc/contactus/search.ladv?raction=view&amp;fl0=__dsid%3A&amp;sm=0&amp;ha=34&amp;as=1&amp;sf=&amp;sp_scope=hmrc&amp;sc=hmrc&amp;nh=10&amp;sr=0&amp;cs=ISO-8859-1&amp;tx1=&amp;tx0=49666,,,,,,,,,,,,,,,,,,,,,,,,,,,,,,enquiry,18zIx_slIbs,28/06/2013 09:19:09
54,"Self Assessment Payment Helpline
Payment help for Self Assessment","If you need more time to pay, please contact us as soon as you receive your Self Assessment statement",,"individuals & employees > Self-employed
individuals & employees > All individuals
businesses & corporations > All businesses",Tax,,,What to do if you can't pay your Self Assessment tax bill,Who to contact if you can't pay your tax bill on time and how to make arrangements to pay by instalments or pay late,http://www.hmrc.gov.uk/sa/not-pay-tax-bill.htm,,,,,,,,Self Assessment Payment Helpline,"If you're experiencing payment difficulties and need more time to pay, please contact us as soon as you receive your Self Assessment statement.","8.00 am to 8.00 pm, Monday to Friday
8.00 am to 4.00 pm Saturday  
Closed Sundays, Christmas Day, Boxing Day & New Years Day",0845 366 1204,,,,,,+44 12 7420 4880,,"Calls will only be accepted on this number for customer's who are resident abroad. 

For all other taxes or debts, or if you have already been contacted by your local debt management office you should refer to the contact details on the latest communication you have received from us.",,,,,,,,,,,,,,,,,,,,,,,,,,,,,,,,,enquiry,6R6F-jCXllU,31/05/2013 14:58:26
55,"Shares and assets valuation enquiries
Assets and share valuation enquiries",For enquiries relating to the valuation of unquoted shares and other assets,,"individuals & employees > All individuals
businesses & corporations > All businesses",Tax,,,An introduction to shares and asset valuation,,http://www.hmrc.gov.uk/shareschemes/shares-valuation.htm,,,,,,,,Shares and Assets Valuation enquiry line,"This enquiry line assists with the valuation, for tax purposes, of unquoted shares (shares of companies which are not quoted, listed or traded on the stock exchange), intangible assets (intellectual property, trademarks, patents, goodwill etc), foreign shares, bloodstock, chattels, foreign residential property, boats, aircraft and a whole range of other assets.","8.00 am to 4.00 pm Monday to Friday
Closed weekends and bank holidays",0845 601 5693,,,,,,,0115 974 2197,This enquiry line cannot give advice on any tax matters.,,,,,,,,,,,,,,,,,Shares and Assets Valuation written enquiries,,,"Ferrers House 
PO Box 38
Castle Meadow Road
Nottingham
NG2 1BB",,,,,We cannot give advice on any tax matters.,,,,,,,,enquiry,Nko-PyClqx8,31/05/2013 14:58:26
56,Stamp Duty Land Tax enquiries,"For enquiries relating to stamp taxes payable on land, property and shares",,"individuals & employees > All individuals
businesses & corporations > All businesses",Tax,,,Stamp Duty Land Tax (SDLT) : the basics,"Understanding Stamp Duty Land Tax, when it's payable and how it's calculated",http://www.hmrc.gov.uk/sdlt/intro/basics.htm,Using Stamp Taxes Online to file your return,Filing SDLT returns using the HMRC's Stamp Taxes Online service,http://www.hmrc.gov.uk/sdlt/return/online.htm,,,,,Stamp Taxes Helpline,"For enquiries relating to stamp taxes payable on the purchase of land, property and shares or on the leasing of land and property","8.30 am to 5.00 pm Monday to Friday
Closed weekends and bank holidays",0845 603 0135,,,,,,+44 1726 209 042,03000 570 316,You may want to call between 12.00 pm and 2.00 pm when we are generally less busy. For enquiries relating to a specific form SDLT1 please have the Unique Taxpayer Reference number available.,For technical help using the online service contact the Online Service Helpdesk,,http://search2.hmrc.gov.uk/kbroker/hmrc/contactus/search.ladv?ha=34&amp;tx0=49669&amp;fl0=__dsid:&amp;tx1=2040&amp;raction=view,,,,,,,,,,,,,,Writing to HMRC about Stamp Duty Land Tax,,,"Use the address below if you're writing to HMRC about anything to do with Stamp Duty Land Tax but if you want to send a paper return or cheque follow the link at the end of the section. 

Birmingham Stamp Office 
9th Floor 
City Centre House
30 Union Street 
Birmingham
B2 4AR 

DX: 15001 Birmingham 1",,,,,You should not send any cheques or paper returns to the Birmingham address.,Address to send cheques and returns,,http://search2.hmrc.gov.uk/kbroker/hmrc/contactus/search.ladv?sr=0&amp;as=1&amp;cs=ISO-8859-1&amp;sc=hmrc&amp;sf=&amp;sm=0&amp;nh=50&amp;ha=34&amp;tx0=49670&amp;fl0=__dsid:&amp;tx1=2040&amp;raction=view,,,,,enquiry,6hAFOpcmkio,31/05/2013 14:58:26
57,"Stamp Taxes Online Services Helpdesk
Online Services Helpdesk - Stamp Duty",Technical help and assistance filing returns online,,businesses & corporations > All businesses,Tax,,,Introduction to the Stamp Taxes Online Service,,http://www.hmrc.gov.uk/so/online/menu.htm,,,,,,,,Stamp Duty Online Services Helpdesk,If you need technical help using the online service please call the Online Services Helpdesk,"8.00 am to 8.00 pm, Monday to Friday
8.00 am to 4.00 pm Saturday 
Closed Sundays, Christmas Day, Boxing Day and New Year?s Day",0300 200 3600,,,,,,,,,,,,,,,,,,,,,,,,,,,,,,,,,,,,,,,,,enquiry,R1_5ktbkW1U,31/05/2013 14:58:26
58,Stamp Duty Land Tax payment and returns,"For posting payments, returns and writing to us",,businesses & corporations > All businesses,Tax,,,Stamp Duty Land Tax,Information about Stamp Duty Land Tax and when it is payable,http://www.hmrc.gov.uk/sdlt/index.htm,How to pay Stamp Taxes,For information on payment options,http://www.hmrc.gov.uk/so/how-to-pay.htm,,,,,,,,,,,,,,,,,,,,,,,,,,,,,,,,,,,Stamp Duty Land Tax paper returns and cheques,"HM Revenue & Customs Stamp Taxes 
Comben House 
Farriers Way
Netherton
L30 4RN 

DX: Rapid Data Capture Centre 
DX 725593 Bootle 9 

If you are sending a payment remember to write your UTRN as shown on your land transaction return on the front of the cheque. 

If you are sending a cheque that covers payment for more than one UTRN please itemise each UTRN against each amount on the back of the cheque.",Writing to HMRC about SDLT,"Use the address below if you're writing to HMRC about anything else to do with Stamp Duty Land Tax. 

Birmingham Stamp Office 
9th Floor 
City Centre House
30 Union Street 
Birmingham
B2 4AR

Please mark your letter 'SDLT' and the subject you are writing about and include any reference number. 

DX: 15001 Birmingham 1

General fax: 03000 570316",,,,Stamp Taxes Helpline,,http://search2.hmrc.gov.uk/kbroker/hmrc/contactus/search.ladv?sr=0&amp;as=1&amp;cs=ISO-8859-1&amp;sc=hmrc&amp;sf=&amp;sm=0&amp;nh=50&amp;ha=34&amp;tx0=49668&amp;fl0=__dsid:&amp;tx1=2040&amp;raction=view,,,,,enquiry,kqxFh--ZyGo,31/05/2013 14:58:26
59,Tariff Classification Service,For advice about classification issues,,"individuals & employees > Self-employed
individuals & employees > All individuals
businesses & corporations > All businesses","VAT, Customs, Excise duties",,,Check the classification information on the GOV.UK website,On the GOV.UK website you can use the UK Trade Tariff tool to help find commodity codes to classify goods for import and export.,https://www.gov.uk/trade-tariff,,,,,,,,Tariff Classification Advice Line,Call the Tariff Classification Advice Line for advice about complex classification issues,"9.00 am to 5.00 pm Monday to Friday
Closed weekends and bank holidays",01702 366 077,,,,,,,,,,,,,,,,,,,,,,,,,,,,,,,,,,,,,,,,,enquiry,9N1or7KE9dc,31/05/2013 14:58:27
60,"Tax credits enquiries
Child Tax Credit enquiries
Working Tax Credit enquiries",For general information about tax credits,,"individuals & employees > Self-employed
individuals & employees > Bereavement
individuals & employees > All individuals",Tax credits and other benefits,,,Changes that might affect your tax credits,"Why, when and how you need to report a change and what happens if you don't",http://www.hmrc.gov.uk/taxcredits/keep-up-to-date/changes-affect/index.htm,Where's My Reply?,When you can expect a reply after contacting HMRC - includes some common tax credits queries,http://www.hmrc.gov.uk/tools/progress-tool/index.htm,,,,,Tax Credit Helpline,For general information about tax credits,"8.00 am to 8.00 pm, Monday to Friday 
8.00 am to 4.00 pm Saturday 
Closed Sundays, Christmas Day, Boxing Day and New Year's Day",0345 300 3900,,,,,0345 300 3909,+44 2890 538 192,,"When you contact us please have your National Insurance number to hand.

If you suspect someone of committing tax credit / benefit fraud you can report them online to the Department of Work and Pensions (DWP). Follow the link below to report a benefit thief.",Report a benefit thief online on the DWP website,,https://secure.dwp.gov.uk/benefitfraud/,,,,,,,,,,,,,,Tax credits written enquiries,,,"Tax Credit Office
Preston
PR1 4AT",,,,,"It helps if you can give your telephone number in your letter. If you're writing about a change of circumstance, please mark your envelope 'change of circumstances'.",,,,,HMRC Contact us Tax Credits Number,HMRC Contact us Tax Credits Number,Tax Credits Number,enquiry,TC_tM5uswa0,10/07/2013 11:51:59
61,"Tax enquiries for crown servants abroad
Crown servants abroad",General enquiries for crown servants living abroad,,individuals & employees > All individuals,Tax,,,,,,,,,,,,,Crown Servants Abroad Helpline,"For Income Tax and Capital Gains Tax enquiries from customers who are employed by the Crown, for example civil servants, armed forces, and diplomats, and who are living abroad","8.00 am to 5.00 pm Monday to Friday
Closed weekends and bank holidays",+44 2920 325 048,,,,,,,,,,,,,,,,,,,,,.,,,,,,,,,,,,,,,,,,,,enquiry,Yl2NGUEzDWE,31/05/2013 14:58:26
62,"Income Tax and Capital Gains Tax enquiries for non-UK residents
Non-UK residents Income Tax and Capital Gains Tax enquiries
Residency - Income Tax and Capital Gains Tax enquiries for those not resident in the UK",Tax enquiries from people who live or work abroad,,individuals & employees > All individuals,Tax,,,Tax and National Insurance information for non-UK residents,"Find out about about tax, National Insurance and how 'residence' and 'domicile' might affect your UK tax",http://www.hmrc.gov.uk/international/personal.htm,,,,,,,,Tax enquiries for non-UK residents,This helpline answers queries regarding Income Tax and Capital Gains Tax for customers who live or work abroad,"8.00 am to 8.00 pm, Monday to Friday
8.00 am to 4.00 pm Saturday
Closed Sundays and bank holidays",0300 200 3300,,,,,,+44 135 535 9022,,,,,,A first point of contact for anyone not resident in the UK but who has income from a UK source or who pays UK National Insurance contributions,Email enquiries for non-UK residents,,,http://www.hmrc.gov.uk/cnr/email.htm,,,,,"By submitting information to us directly by using special forms on our website your message is secure, but our email reply to you, which will be sent over the internet, is not. Information sent by email over the internet is not secure and is at risk of being intercepted and read by people other than those it was intended for. If our response to you contains any personal or confidential information we will only reply to you by letter or telephone. 

If you have any doubt about the authenticity of an email you receive which claims to have come from HMRC please do not follow any links within the email, disclose any personal details or respond to it. 

Following the link below to report HMRC related phishing emails.",Reporting HMRC related phishing emails,,http://www.hmrc.gov.uk/security/reporting.htm,,,,,,,,,,,,,,,,,enquiry,h40mW9YbrhU,24/06/2013 09:38:59
63,"Reporting Tax Evasion
Evasion of tax hotline
Tax fraud hotline
Reporting tax fraud
Fraud reporting - Income Tax",A confidential phone line for you to report somebody who is not paying their fair share of tax,,"individuals & employees > All individuals
businesses & corporations > All businesses
employers > All employers",See also,,,,,,,,,,,,,Tax Evasion Hotline,"A confidential phone line for you to report somebody who is not paying their fair share of tax. 

This telephone number ONLY deals with tax evasion reporting. It does not deal with questions about taxes, duty or benefits, including tax credits.","8.00 am to 6.00 pm Monday to Friday (If you call before 9.00 am your call may be answered more quickly)   
Closed Saturday, Sunday and bank holidays",0800 788 887,,,,,0845 915 3296,,0800 783 0879,"If you prefer to speak to us in Welsh, please follow the link below to the Welsh language helplines.",Welsh language helplines,,http://search2.hmrc.gov.uk/kbroker/hmrc/contactus/search.ladv?raction=view&amp;fl0=contactid%3A&amp;sm=0&amp;ha=34&amp;as=1&amp;sp_scope=hmrc&amp;sc=hmrc&amp;nh=10&amp;sr=0&amp;cs=ISO-8859-1&amp;tx0=71,,Tax Evasion Hotline,Make a report online,,https://online.hmrc.gov.uk/shortforms/form/TEH_IRF?dept-name=TEH&sub-dept-name=&location=39&origin=http://www.hmrc.gov.uk,,,,,"By submitting information to us directly by using special forms on our website your message is secure, but our email reply to you, which will be sent over the internet, is not. Information sent by email over the internet is not secure and is at risk of being intercepted and read by people other than those it was intended for. If our response to you contains any personal or confidential information we will only reply to you by letter or telephone. 

If you have any doubt about the authenticity of an email you receive which claims to have come from HMRC please do not follow any links within the email, disclose any personal details or respond to it. 

Follow the link below to report HMRC related phishing emails.",Reporting HMRC related phishing emails,,http://www.hmrc.gov.uk/security/reporting.htm,,,You can write to us at the following Freepost address:,"HM Revenue and Customs  
Freepost NAT22785
Cardiff
CF14 5GX",,,,,,,,,,,,,enquiry,tRNNy6edopA,31/05/2013 14:58:24
64,Large Business Service,"Responsible for the tax affairs of the largest UK companies, employers and partnerships",,businesses & corporations > All businesses,Tax,,,Large Business Service,"Find out more about Large Business Service, how they approach large businesses and who gets a Customer Relationship Manager",http://www.hmrc.gov.uk/large-businesses/index.htm,Large Business Service - who to contact,"Find out contacts for businesses overseen by Large Business Service, general enquiries and how to send an email",http://www.hmrc.gov.uk/large-businesses/contacts.htm,,,,,,,,,,,,,,,,,,,,,,,,,,,,,,,,,,,,,,,,,,,,,,,,,enquiry,gyX6MK1zMrY,31/05/2013 14:58:26
65,"Customs, Excise and VAT fraud reporting
Fraud reporting - VAT and customs
Customs Hotline - reporting Customs, Excise and VAT fraud
VAT and Customs fraud reporting
Smuggling and tax fraud","Contact the Customs Hotline to report all types of smuggling, customs, excise and VAT fraud",,"individuals & employees > All individuals
businesses & corporations > All businesses
employers > All employers","VAT, Customs, Excise duties",,,Banned or restricted goods,"What goods are banned or require a licence such as firearms, rules on restricted goods such as fruit, vegetables and seeds",http://www.hmrc.gov.uk/customs/banned-restricted.htm,,,,,,,,Customs Hotline,"You can call the customs hotline about the following:
- cigarettes and tobacco 
- alcohol
- cash
- hydrocarbon oils 
- drugs 
- guns and explosives 
- military equipment
- weapons of mass destruction or the parts used to make them 
- obscene or indecent material - including child pornography 
- meat and other types of food 
- endangered and protected species including animals, birds, fish, reptiles, plants, coral and items made from them 
- expensive goods like works of art, antiques, gold and jewellery 
- counterfeit, or fake, goods 
- dangerous substances, like poisons 
- money products like shares and securities   

People also try to avoid paying the following excise duties and taxes: 

- Money Laundering Regulations - suspicious transactions  
- Environmental taxes - Landfill Tax, Aggregates Levy and Climate Change Levy
- Transport taxes - hydrocarbon oils and Air Passenger Duty 
- Betting and gaming duty 
- Excise duties - including the illegal use of rebated 'red' diesel 
- Insurance Premium Tax (IPT) 
- VAT - including Missing Trader Intra Community - also known as carousel fraud

This telephone number ONLY deals with customs, excise and VAT fraud reporting. It does not deal with questions about taxes, duty or benefits, including tax credits.","24 hours a day, seven days a week",0800 595 000,,,,,,"If calling from Belgium, Denmark, France, Germany, Republic of Ireland, Netherlands: 00800 555 95000
If calling from mainland Spain: 900 988 922",0800 528 0506,,,,,"Email us to report suspicious activity in relation to smuggling, customs, excise and VAT fraud",,,,,Customs Hotline,,,http://www.hmrc.gov.uk/customs-hotline/,"Submitting information to us directly by using the special forms on our website, your message is secure. Please be aware that information sent by email over the internet is not secure and may be at risk of being of being intercepted and read by people other than those it was intended for.

Follow the link below to report HMRC related phishing emails.",Reporting HMRC related phishing emails,,http://www.hmrc.gov.uk/security/reporting.htm,,,"Write to the Customs Hotline Freepost address to report all types of smuggling, customs, excise and VAT fraud","HM Revenue & Customs 
Freepost NAT22785
CARDIFF
CF14 5GX",,,,,,,,,,,,,enquiry,k9zpyaj9_go,31/05/2013 14:58:24
66,"VAT Online Services Helpdesk
Online Services Helpdesk - VAT
Helpdesk for VAT online","For help using the VAT online facilities - including submitting your VAT Returns, changing your registration details, EU Refunds, submitting EC Sales Lists and Reverse Charge Sales Lists",,"individuals & employees > Self-employed
individuals & employees > All individuals
businesses & corporations > Charities & CASCs
businesses & corporations > All businesses
employers > All employers","VAT, Customs, Excise duties",,,How to sign up to use VAT online services,A guide to the Online Services registration and enrollment process,http://www.hmrc.gov.uk/vat/start/register/signup-online.htm,How to submit your VAT Return online,An overview of the different ways to submit your VAT Return online,http://www.hmrc.gov.uk/vat/vat-online/submit.htm,,Service availability,,http://customs.hmrc.gov.uk/channelsPortalWebApp/channelsPortalWebApp.portal?_nfpb=true&_pageLabel=pageOnlineServices_ShowContent&propertyType=document&id=HMCE_MIG_009921,VAT Online Services Helpdesk,"For help using the VAT online facilities including:
- registering for VAT
- submitting your VAT Returns
- changing your VAT registration details
- EU Refunds
- submitting EC Sales Lists and Reverse Charge Sales Lists
Also, if you need information about the ?known facts? required to enrol for VAT Online services.","8.00am to 6.00 pm, Monday to Friday
Closed weekends and bank holidays",0300 200 3701,,,,,0300 200 3719,+44 2920 501 261,,,,,,,Email HMRC for your EDR,Request a reminder of your VAT Effective Date of Registration (EDR),,https://online.hmrc.gov.uk/shortforms/form/OSHVATEDR?dept-name=&sub-dept-name=&location=47&origin=http://www.hmrc.gov.uk,VAT Online Services Helpdesk - email a question,Email a question relating to one of the following online services:,,https://online.hmrc.gov.uk/shortforms/form/OSHVAT?dept-name=&sub-dept-name=&location=47&origin=http://www.hmrc.gov.uk,"- registering for VAT
- submit VAT Returns
- change registration details
- EU refunds
- EC Sales List (ECSL) 
- Reserve Charge Sales List (RCSL) 
- Agents: Online Agent Authorisation, VAT for Agents
- Alcohol and Tobacco Warehousing Declarations (ATWD) 

To send a question about one of these online services you will need to include an email address along with a contact name. You will also need your VAT registration number or the postcode of your main place of business and the name and details of the online service that your question relates to. If you are emailing about the ATWD service you will need to include your Warehouse ID.  

By submitting information to us directly by using special forms on our website your message is secure, but our email reply to you, which will be sent over the internet, is not. Information sent by email over the internet is not secure and is at risk of being intercepted and read by people other than those it was intended for. If our response to you contains any personal or confidential information we will only reply to you by letter or telephone. 

If you have any doubt about the authenticity of an email you receive which claims to have come from HMRC please do not follow any links within the email, disclose any personal details or respond to it. 

Follow the link below to report HMRC related phishing emails.",Reporting HMRC related phishing emails,,http://www.hmrc.gov.uk/security/reporting.htm,,,,,,,,,,,,,,,,,enquiry,Oi4SQxdhEaQ,12/06/2013 09:25:59
67,VAT enquiries,For information and advice about VAT,,"individuals & employees > Self-employed
individuals & employees > Bereavement
individuals & employees > All individuals
businesses & corporations > All businesses","VAT, Customs, Excise duties",,,How to sign up to use VAT online services,A guide to the online services registration and enrollment process,http://www.hmrc.gov.uk/vat/start/register/signup-online.htm,"Payment problems, assessments, penalties and appeals","Guidance on getting help if you can't pay, what to do if you receive a penalty, and how to appeal against VAT decisions",http://www.hmrc.gov.uk/vat/managing/problems/pay-probs/index.htm,,How to pay VAT,,http://www.hmrc.gov.uk/payinghmrc/vat.htm,VAT Helpline,"If you can't find the answer to your question on the HMRC website, the quickest and easiest way is to ring the VAT helpline where you can get the most of your VAT questions answered. Before you ring, make sure you have your VAT registration number and postcode to hand. If you're not VAT registered you'll need your postcode.

Please note that the VAT Helpline cannot agree time to pay, or take payments over the phone. To find out more about paying HMRC VAT, follow the link 'How to pay VAT' in the Check our website section above.","8.00 am to 6.00 pm, Monday to Friday
Closed weekends and bank holidays",0300 200 3700,,,,,0300 200 3719,+44 2920 501 261,,"If you need help with a technical problem with VAT online services, you can telephone 0300 200 3701. You can also use this number if you need information about the ?known facts? required to enrol for VAT Online services.

If you have a question about VAT relief for disabled and older people you can call the helpline by following the link below.",Helpline for VAT relief for disabled and older people,,http://search2.hmrc.gov.uk/kbroker/hmrc/contactus/search.ladv?raction=view&amp;fl0=__dsid%3A&amp;sm=0&amp;ha=34&amp;as=1&amp;sf=&amp;sp_scope=hmrc&amp;sc=hmrc&amp;nh=10&amp;sr=0&amp;cs=ISO-8859-1&amp;tx1=&amp;tx0=49691,,Questions about VAT,You can email a question about VAT - find out how and where to email,,http://www.hmrc.gov.uk/vat/managing/problems/getting-answers.htm,Questions about VAT online services,You can email a question relating to one of the following online services:,,http://search2.hmrc.gov.uk/kbroker/hmrc/contactus/search.ladv?raction=view&fl0=__dsid%3A&sm=0&ha=34&as=1&sf=&sp_scope=hmrc&sc=hmrc&nh=10&sr=0&cs=ISO-8859-1&tx1=&tx0=49684,"-VAT: Submit VAT Returns, request your Effective Date of Registration, Change Registration Details, EU Refunds, EC Sales List (ECSL), Reverse Charge Sales List (RCSL)
-Agents: Online Agent Authorisation, VAT for Agents 
-Alcohol and Tobacco Warehousing Declarations (ATWD)   

By submitting information to us directly by using special forms on our website your message is secure, but our email reply to you, which will be sent over the internet, is not. Information sent by email over the internet is not secure and is at risk of being intercepted and read by people other than those it was intended for. If our response to you contains any personal or confidential information we will only reply to you by letter or telephone. 

If you have any doubt about the authenticity of an email you receive which claims to have come from HMRC please do not follow any links within the email, disclose any personal details or respond to it. 

Follow the link below to report HMRC related phishing emails.",Reporting HMRC related phishing emails,,http://www.hmrc.gov.uk/security/reporting.htm,Writing to HMRC about VAT,Where possible HMRC strongly recommends that you submit your questions about VAT by email. HMRC can reply to your question more quickly this way. Only particularly long questions or those where you need to attach something should be sent by post.,,,,,,,,Questions about VAT,This guide contains information about how and where to write to HMRC if you have questions about VAT. It also includes a check list of things you'll need to tell HMRC when you write to them.,http://www.hmrc.gov.uk/vat/managing/problems/getting-answers.htm,,,,,enquiry,dMVkEC6liWE,12/06/2013 09:06:20
68,"Feedback
Website and online services feedback
Online services and website feedback",Tell us what you think of our website and online services,http://www.hmrc.gov.uk/comment/index.htm,,See also,,,,,,,,,,,,,,,,,,,,,,,,,,,,,,,,,,,,,,,,,,,,,,,,,,,,,,,,,enquiry,w9K_Khceuqg,31/05/2013 14:58:24
69,"Newly Self-Employed Helpline
Self-Employed Helpline for the newly self-employed","To register for self-employed National Insurance, tax and VAT",,"individuals & employees > Self-employed
individuals & employees > All individuals
businesses & corporations > All businesses",Tax,,,Tax and National Insurance for the self-employed,"How to register with HMRC when you start a business, basic information on Self-Assessment, National Insurance, VAT and record keeping",http://www.hmrc.gov.uk/working/intro/selfemployed.htm,,,,,,,,Newly Self-Employed Helpline,"This helpline enables you to register for National Insurance, tax and VAT. They will also arrange for you to attend a free workshop with one of our Business Education and Support Teams to help you get started.

The helpline can't provide you with an Unique Tax reference number. You will find it on any Self Assessment letters or you will need to contact your HMRC Office by following the Contact us link below.","8.00 am to 8.00 pm, Monday to Friday
8.00 am to 4.00 pm Saturday 
Closed Sundays and bank holidays",0300 200 3504,,,,,0845 915 3296,,,,Contact us,,http://search2.hmrc.gov.uk/kb5/hmrc/contactus/view.page?record=fPCm_2Cccl0,Use the HM Revenue & Customs (HMRC) email service,Tell HMRC about a change of name or address,,,http://www.hmrc.gov.uk/individuals/change-of-circs.htm,,,,,"By submitting information to us directly by using special forms on our website your message is secure, but our email reply to you, which will be sent over the internet, is not. Information sent by email over the internet is not secure and is at risk of being intercepted and read by people other than those it was intended for. If our response to you contains any personal or confidential information we will only reply to you by letter or telephone. 

If you have any doubt about the authenticity of an email you receive which claims to have come from HMRC please do not follow any links within the email, disclose any personal details or respond to it. 

Follow the link below to report HMRC related phishing emails.",Reporting HMRC related phishing emails,,http://www.hmrc.gov.uk/security/reporting.htm,,,,,,,,,,,,,,,,,enquiry,1JNuf06zzrM,13/06/2013 08:03:24
70,"Pensions Helpline - Contracted Out
Contracted Out Pensions enquiries","Advice and assistance for pension providers, pension scheme administrators and individuals contracting out of the Second State Pension",,"individuals & employees > All individuals
businesses & corporations > All businesses
businesses & corporations > Pension schemes",National Insurance,,,,,,,,,,,,,Contracted Out Pensions Helpline,"Advice and assistance for individuals, pension providers and pension scheme administrations regarding contracting out of the Second State Pension into occupational pensions, personal pensions and stakeholder pension schemes.","8.30 am to 5.00 pm, Monday to Friday
Closed weekends and bank holidays",0300 200 3507,,,,,0845 915 3296,,,"We cannot offer advice or assistance with State Pension entitlement including State Earnings Related Pension Scheme, State Second Pension, entitlement to pension compensation, pension forecasts, provide guaranteed minimum pension figures over the telephone or offer personal financial advice.

If your query is about National Insurance contributions for individuals please contact National Insurance Helpline for individuals by following the link below.",National Insurance Helpline for individuals,,http://search2.hmrc.gov.uk/kbroker/hmrc/contactus/search.ladv?raction=view&amp;fl0=__dsid%3A&amp;sm=0&amp;ha=34&amp;as=1&amp;sp_scope=hmrc&amp;sc=hmrc&amp;nh=10&amp;sr=0&amp;cs=ISO-8859-1&amp;tx1=&amp;tx0=49620,Use the HM Revenue & Customs (HMRC) email service,Tell HMRC about a change of name or address,,,http://www.hmrc.gov.uk/individuals/change-of-circs.htm,,,,,"By submitting information to us directly by using special forms on our website your message is secure, but our email reply to you, which will be sent over the internet, is not. Information sent by email over the internet is not secure and is at risk of being intercepted and read by people other than those it was intended for. If our response to you contains any personal or confidential information we will only reply to you by letter or telephone. 

If you have any doubt about the authenticity of an email you receive which claims to have come from HMRC please do not follow any links within the email, disclose any personal details or respond to it. 

Follow the link below to report HMRC related phishing emails.",Reporting HMRC related phishing emails,,http://www.hmrc.gov.uk/security/reporting.htm,,,,,,,,,,,,,,,,,enquiry,a_IQl07t4fs,13/06/2013 08:06:46
71,Welsh language helplines,Enquiries from Welsh speaking customers,,employers > All employers,See also,,Am ragor o wybodaeth drwy gyfrwng y Gymraeg cliciwch y ddolen isod,safle iaith Gymraeg,,http://www.hmrc.gov.uk/cymraeg/index.htm,,,,,,,,Helpline for tax and tax credits,"For enquiries regarding: 
- Bereavement enquiries for Pay As You Earn and Self Assessment
- Child Benefit  
- Child Trust Fund 
- Construction Industry Scheme
- Employers
- Health in Pregnancy Grant
- Income Tax 
- Inheritance Tax
- National Insurance
- National Minimum Wage
- Pay As You Earn  
- Self  Assessment
- Stamp Duty Land Tax
- Tax credits","8.30 am to 5.00 pm, Monday to Friday 
Closed weekends and bank holidays",0300 200 1900,"Helpline for VAT, customs, excise and duties","For enquiries regarding:
- VAT
- Customs
- Excise
- Duties
- International trade","8.00 am to 6.00 pm, Monday to Friday
Closed weekends and bank holidays",0300 200 3705,,,,"If you have a query regarding payment of taxes and duties, please follow the link below to contact the Welsh Language Helpline for Debt Management.",Welsh Language Helpline for Debt Management,,http://search2.hmrc.gov.uk/kbroker/hmrc/contactus/search.ladv?ha=34&amp;tx0=1261551&amp;fl0=__dsid:&amp;tx1=2040&amp;raction=view,Statutory Sick Pay enquiries for Welsh speaking customers,Welsh language Statutory Sick Pay email enquiries,,,https://online.hmrc.gov.uk/shortforms/form/EHL_SP_Welsh?dept-name=EHL&sub-dept-name=SSP&location=1&origin=http://www.hmrc.gov.uk/cymraeg/index.htm,,,,,"By submitting information to us directly by using special forms on our website your message is secure, but our email reply to you, which will be sent over the internet, is not. Information sent by email over the internet is not secure and is at risk of being intercepted and read by people other than those it was intended for. If our response to you contains any personal or confidential information we will only reply to you by letter or telephone. 

If you have any doubt about the authenticity of an email you receive which claims to have come from HMRC please do not follow any links within the email, disclose any personal details or respond to it. 

Follow the link below to report HMRC related phishing emails.",Reporting HMRC related phishing emails,,http://www.hmrc.gov.uk/security/reporting.htm,,,,,,,,,,,,,,,,,enquiry,hyaCiQ0ADLY,26/06/2013 10:28:12
72,Statutory Sick Pay enquiries for Welsh speaking customers,Welsh language Statutory Sick Pay email service,,,See also,,,,,,,,,,,,,,,,,,,,,,,,,,,,,Welsh language Statutory Sick Pay email enquiries,,,https://online.hmrc.gov.uk/shortforms/form/EHL_SP_Welsh?dept-name=EHL&sub-dept-name=SSP&location=1&origin=http://www.hmrc.gov.uk/cymraeg/index.htm,,,,,"By submitting information to us directly by using special forms on our website your message is secure, but our email reply to you, which will be sent over the internet, is not. Information sent by email over the internet is not secure and is at risk of being intercepted and read by people other than those it was intended for. If our response to you contains any personal or confidential information we will only reply to you by letter or telephone. 

If you have any doubt about the authenticity of an email you receive which claims to have come from HMRC please do not follow any links within the email, disclose any personal details or respond to it. 

Follow the link below to report HMRC related phishing emails.",Reporting HMRC related phishing emails,,http://www.hmrc.gov.uk/security/reporting.htm,,,,,,,,,,,,,,,,,enquiry,UqWnIG9xA0s,06/06/2013 07:19:45
73,"VAT, customs and excise and duties enquiries for Welsh speaking customers",Welsh language National Advice Service,,,See also,,,,,,,,,,,,,Welsh language National Advice Service,"For Welsh language enquiries about VAT, customs and excise or international trade","8.00 am to 6.00 pm, Monday to Friday
Closed weekends and bank holidays",0300 200 3705,,,,,,,,,,,,,,,,,,,,,,,,,,,,,,,,,,,,,,,,,enquiry,L7DXSSTBjyo,12/06/2013 09:11:55
75,"Business Payment Support Service
Time to Pay Service for businesses
Support Payment Service for businesses
Payment Support Service for businesses","Help for businesses having difficulty meeting tax, National Insurance or other payments during the economic downturn",,businesses & corporations > All businesses,See also,,,Business Payment Support Service,How and when to let HMRC know about changes to your business circumstances that may affect your tax position,http://www.hmrc.gov.uk/payinghmrc/problems/bpps.htm,,,,,,,,Business Payment Support Service,"A dedicated Business Support Service designed to meet the needs of businesses affected by the current economic condition was introduced on 24 November 2008. If you're worried about being able to meet tax, National Insurance or other payments owed to HM Revenue & Customs, or you anticipate that payments coming due will cause you problems, you can get in touch with us to discuss payment options to help you deal with temporary cashflow difficulties.","8.00 am to 8.00 pm, Monday to Friday
8.00 am to 4.00 pm, Saturday and Sunday",0300 200 3835,,,,,,,,,,,,,,,,,,,,,,,,,,,,,,,,,,,,,,,,,enquiry,2FDcUqqsxZs,28/06/2013 09:21:08
77,"Trusts
United Kingdom Family trusts",For advice on Income Tax and Capital Gains Tax on trusts,,"individuals & employees > All individuals
businesses & corporations > All businesses",Tax,,,Information about trusts,"What trusts are, how they work and help with trust tax",http://www.hmrc.gov.uk/trusts/index.htm,,,,,,,,Trusts and Deceased Estates Helpline,"Help and advice for trust and deceased estate Income Tax and Capital Gains Tax queries 

The helpline can:
- help you understand how family trusts are taxed
- provide general advice and information about Income Tax and Capital Gains Tax on trusts and deceased estates

The helpline cannot:
- comment on tax planning queries
- deal with the personal tax affairs of the deceased including completion of forms R27 or the tax affairs of an individual
- provide assistance in Inheritance Tax matters","9.00 am to 5.00 pm, Monday to Friday 
Closed weekends and bank holidays",0845 604 6455,,,,,,+44 115 974 3009,,"For specific enquiries concerning your tax affairs or those of the deceased please telephone the relevant HMRC office.

Call the Probate and Inheritance Tax helpline for help and advice on Probate and Inheritance Tax following a death.",Probate and Inheritance Tax Helpline,,http://search2.hmrc.gov.uk/kbroker/hmrc/contactus/search.ladv?raction=view&amp;fl0=__dsid%3A&amp;sm=0&amp;ha=34&amp;as=1&amp;sf=&amp;sp_scope=hmrc&amp;sc=hmrc&amp;nh=10&amp;sr=0&amp;cs=ISO-8859-1&amp;tx1=&amp;tx0=49659,,,,,,,,,,,,,,,For written enquiries regarding trusts and tax,,"HMRC Trusts & Estates
Trusts
Ferrers House
Castle Meadow Road
Nottingham
NG2 1BB 

HMRC Trusts & Estates has specialist offices in Edinburgh, Truro and Bootle. If your case is being dealt with by one of these offices, they will give you the correct address when they write to you.",,,,,,,,,,,,,enquiry,wsxrNQaOrGg,31/05/2013 14:58:27
78,Health in Pregnancy Grant,For general information about Health in Pregnancy Grant,,individuals & employees > All individuals,Tax credits and other benefits,,,,,,,,,,,,,,,,,,,,,,,,,,,,,,,,,,,,,,,,,,,,"Health in Pregnancy Grant Office
Waterview Park
Mandarin Way
Washington
NE88 1ZX",,,,,"When you contact us, please tell us your full name, National Insurance number and a contact phone number.",,,,,,,,enquiry,oiy5KjuSbmY,31/05/2013 14:58:27
79,"Income Tax enquiries for individuals, pensioners and employees
Taxes Helpline","For all enquiries relating to Income Tax for individuals, pensioners and employees",,"individuals & employees > All individuals
businesses & corporations > Pension schemes
employers > All employers",Tax,,,Tax refunds and reclaiming overpaid tax,Find out how to claim a refund if you think you've paid too much tax on your employment or pension income,http://www.hmrc.gov.uk/incometax/refund-reclaim.htm,Tax codes,"Understanding tax codes and your PAYE Coding Notice, emergency tax, underpayments, what to do if your tax code is wrong",http://www.hmrc.gov.uk/incometax/tax-codes.htm,,Where's my reply?,,http://www.hmrc.gov.uk/tools/progress-tool/index.htm,Taxes Helpline,Please have your National Insurance number with you when you phone,"8.00 am to 8.00 pm, Monday to Friday 
8.00 am to 4.00 pm Saturday",0300 200 3300,,,,,0845 302 1408,+44 135 535 9022,,,,,,You can use the HMRC email service to report a change of name or address,Tell HMRC about a change of name or address by email,,,http://www.hmrc.gov.uk/individuals/change-of-circs.htm,,,,,"By submitting information to us directly by using special forms on our website your message is secure, but our email reply to you, which will be sent over the internet, is not. Information sent by email over the internet is not secure and is at risk of being intercepted and read by people other than those it was intended for. If our response to you contains any personal or confidential information we will only reply to you by letter or telephone. 

If you have any doubt about the authenticity of an email you receive which claims to have come from HMRC please do not follow any links within the email, disclose any personal details or respond to it. 

Follow the link below to report HMRC related phishing emails.",Reporting HMRC related phishing emails,,http://www.hmrc.gov.uk/security/reporting.htm,,,,,,,,,"You can write to HMRC by using the postal address on the most recent correspondence from us.

If you don't have recent correspondence from us then write to:

HM Revenue & Customs
Pay As You Earn
PO Box 1970
Liverpool
L75 1WX

If you want to complain to HMRC about the service you have received in relation to Pay As You Earn (PAYE), please clearly mark your letter as a complaint so we can direct it to a  complaints handler quickly.",,,,,,,,enquiry,hpkspulskxM,14/06/2013 07:34:35
80,"Income Tax enquiries for self-employed
Taxes Helpline for Self-Employed",For all enquiries relating to Income Tax,,"individuals & employees > Self-employed
individuals & employees > All individuals",Tax,,,Tax and National Insurance for the self-employed,"Find out how to register with HMRC when you start a business, basic information on Self-Assessment, National Insurance, VAT and record keeping",http://www.hmrc.gov.uk/working/intro/selfemployed.htm,File your tax return online,Save time and get your tax calculation automatically when you file your tax return online,http://www.hmrc.gov.uk/sa/file-online.htm,,,,,Taxes Helpline,,"8.00 am to 8.00 pm, Monday to Friday  
8.00 am to 4.00 pm Saturday",0300 200 3300,,,,,0300 200 3319,+44 135 535 9022,,,,,,You can use the HMRC email service to report a change of name or address,Tell HMRC about a change of name or address by email,,,http://www.hmrc.gov.uk/individuals/change-of-circs.htm,,,,,"By submitting information to us directly by using special forms on our website your message is secure, but our email reply to you, which will be sent over the internet, is not. Information sent by email over the internet is not secure and is at risk of being intercepted and read by people other than those it was intended for. If our response to you contains any personal or confidential information we will only reply to you by letter or telephone. 

If you have any doubt about the authenticity of an email you receive which claims to have come from HMRC please do not follow any links within the email, disclose any personal details or respond to it. 

Follow the link below to report HMRC related phishing emails.",Reporting HMRC related phishing emails,,http://www.hmrc.gov.uk/security/reporting.htm,,,,,,,,,"You can write to HMRC by using the postal address on the most recent correspondence from us.

If you don't have recent correspondence from us then write to:

HM Revenue & Customs
Self Assessment
PO Box 4000
Cardiff
CF14 8HR",,,,,,,,enquiry,fPCm_2Cccl0,24/06/2013 09:19:34
81,Corporation Tax enquiries,For all enquiries relating to Corporation Tax; both general enquiries and enquiries relating to your specific Corporation Tax affairs,,businesses & corporations > All businesses,Tax,,,Information about completing and filing your Company Tax Return,Find out more about completing and filing your Company Tax Return,http://www.hmrc.gov.uk/ct/managing/company-tax-return/index.htm,Managing your Corporation Tax,Paying tax; payment problems; refunds; filing returns; chargeable gains; keeping records; directors' loans; using an agent,http://www.hmrc.gov.uk/ct/managing/index.htm,,Corporation Tax - Online service issues,,http://customs.hmrc.gov.uk/channelsPortalWebApp/channelsPortalWebApp.portal?_nfpb=true&_pageLabel=pageOnlineServices_ShowContent&id=HMCE_PROD1_026876&propertyType=document,If you want to contact us about Corporation Tax,"If you know which Tax Office deals with your company's tax affairs, then you should contact that office. The telephone number can be found on recent correspondence - tax forms or letters from us. If you can't find your tax office telephone number, use the 'Find a Tax Office' link below.",,,,,,,,,,,Find a Tax Office,,http://search2.hmrc.gov.uk/kbroker/hmrc/locator/locator.jsp?type=0,,,,,,,,,,,,,,,,,,,,,,,,,,,,,,enquiry,H4KsnaDw_lA,31/05/2013 14:58:22
82,"Capital Gains Tax enquiries for individuals, employees and self-employed",For all enquiries relating to Capital Gains Tax; both general enquiries and enquiries relating to your specific Capital Gains Tax affairs,,"individuals & employees > Self-employed
individuals & employees > All individuals
businesses & corporations > All businesses",Tax,,,Capital Gains Tax,Helping you to understand and work out your Capital Gains Tax,http://www.hmrc.gov.uk/cgt/index.htm,Capital Gains Tax rates and annual tax-free allowances,Check current and previous years' Capital Gains Tax rates and the Annual Exempt Amount,http://www.hmrc.gov.uk/rates/cgt.htm,,,,,Taxes Helpline,,"8.00 am to 8.00 pm, Monday to Friday 
8.00 am to 4.00 pm Saturday",0300 200 3300,,,,,0300 200 3319,,,,,,,,,,,,,,,,,,,,,"You can write to HMRC by using the postal address on the most recent correspondence from us.

If you don't have recent correspondence from us then write to:",,"HM Revenue & Customs
Capital Gains Tax
PO Box 1970
Liverpool
L75 1WX","If your query is in respect of the areas listed below, please write to the PO Box address in Glasgow.","HM Revenue & Customs 
Local Compliance 
Personal & CGT Compliance S0970
PO Box 3900
Glasgow
G70 6AA",,,"- Negligible Value claims (S24 TCGA 1992) for unlisted shares
- Business disposals (including rollover, taper, incorporation and entrepreneurs' relief)
- Overpayment relief where a claim is in respect of CGT issue
- Mansworth v Jelley or HMRC v Smallwood amended loss claims  
- Claims under S48 and S279A TCGA 1992 
- 2007/2008 & earlier EIS CGT deferral relief claims 
- CAP1 requests involving CGT",,,,,,,,enquiry,gwYsnAv-zT8,24/06/2013 09:26:37
84,"VAT reliefs for disabled and older people
Disabled and older people - VAT reliefs
Reduced rate VAT on equipment and vehicles for disabled and older people",Call the helpline for advice on the VAT reliefs available for disabled and older people,,"individuals & employees > All individuals
businesses & corporations > All businesses","VAT, Customs, Excise duties",,,Equipment and vehicles for disabled people might be free of VAT,"If you're disabled, you may not have to pay any VAT on items that you buy such as cars and other equipment to help your mobility",http://www.hmrc.gov.uk/vat/sectors/consumers/disabled.htm,Reduced-rate VAT on mobility aids for older people,"If you are over 60, you will be able to buy some mobility aids at a reduced rate of VAT",http://www.hmrc.gov.uk/vat/sectors/consumers/mobility-aids.htm,,,,,,For information and advice on the VAT reliefs available for disabled and older people,"8.00 am to 5.00 pm, Monday to Friday
Closed weekends and bank holidays",0845 302 0203,,,,,,,,"This helpline is part of HMRC Charities. When you call this number, please choose option 1 to speak to an advisor about VAT reliefs for disabled and older people.",,,,If you need to send documents please contact us by post.,,,,,VAT relief for disabled and older people,,,http://www.hmrc.gov.uk/charities/vat-relief-disabled.htm,"By submitting information to us directly by using special forms on our website your message is secure, but our email reply to you, which will be sent over the internet, is not. Information sent by email over the internet is not secure and is at risk of being intercepted and read by people other than those it was intended for. If our response to you contains any personal or confidential information we will only reply to you by letter or telephone. 

If you have any doubt about the authenticity of an email you receive which claims to have come from HMRC please do not follow any links within the email, disclose any personal details or respond to it. 

Follow the link below to report HMRC related phishing emails.",Reporting HMRC related phishing emails,,http://www.hmrc.gov.uk/security/reporting.htm,,,You can write to us at the following address:,"HM Revenue & Customs
VAT Disabled and Elderly Reliefs Correspondence S0708 
PO Box 205 
Bootle 
L69 9AZ",,,,,,,,,elderly,,,,enquiry,QaLSrBITuKk,31/05/2013 14:58:27
85,"Non-UK residents' Payment Helpline
Payment helpline for non-UK residents",Payment enquiries from customers who are living abroad permanently and have HMRC debts,,individuals & employees > All individuals,Tax,,,,,,,,,,,,,,"If you live outside the UK permanently and need help with paying your tax, call the number below. This is the Non-Residents Recovery Unit.","8.00 am to 5.00 pm, Monday to Friday
Closed weekends and bank holidays",+44 1274 204880 (debt recovery calls only) see note below,,,,,,,+44 1274 204198,"Advisers cannot deal with general tax enquiries, they can only make time to pay arrangements for non-UK residents.",,,,,,,,,,,,,,,,,,,,,,,,,,,,,,,,,enquiry,V5CMOnCtYt4,31/05/2013 14:58:27
86,High Net Worth Unit,High Net Worth Unit deals with the tax affairs of HMRC's wealthiest customers,,"individuals & employees > All individuals
businesses & corporations > All businesses",Tax,,High Net Worth Unit (HNWU) deals with the tax affairs of HM Revenue & Customs (HMRC) wealthiest customers. For more information check our website.,High Net Worth Unit,,http://www.hmrc.gov.uk/menus/hnwu.htm,,,,,,,,,,,,,,,,,,,,,,,,,,,,,,,,,,,,,,,,,,,,,,,,,,,,enquiry,S_NdRPJrM0E,31/05/2013 14:58:27
87,"International Trade Development Liaison Officers (ITDLOs)
Development Liaison Officers for International Trade
Support for businesses - International Trade
Importing and Exporting Developments",International Trade Development Liaison Officers (ITDLOs),,businesses & corporations > All businesses,"VAT, Customs, Excise duties",,,International Trade Development Liaison Officers (ITDLOs),,http://customs.hmrc.gov.uk/channelsPortalWebApp/channelsPortalWebApp.portal?_nfpb=true&_pageLabel=pageVAT_ShowContent&id=HMCE_PROD_008550&propertyType=document,,,,"International Trade Development Liaison Offiocers (ITDLOs) can provide information and support to businesses on future developments in international trade, including:

Export Control System (ECS)
Import Control System (ICS)
Authorised Economic Operators (AEO)
Economic Operator Registration and Indentification Scheme (EORI)
Multi Annual Strategic Plan (MASP)
Modernised Customs Code (MCC)",,,,,,,,,,,,,,,,,,,,,,,,,,,,,,,,,,,,,,,,,,,,,,,,enquiry,F69496hk13k,31/05/2013 14:58:27
88,Research and Development (R&D) specialist units,"Our R&D specialist units will be your first point of contact for any issues surrounding your R&D claim, unless your company is dealt with by Large Business Service (LBS)",,businesses & corporations > All businesses,Tax,,,Information about R&D Relief and how to claim,What is R&D; who can claim; how to claim; when to claim; and SME and Large Company Schemes explained,http://www.hmrc.gov.uk/ct/forms-rates/claims/randd.htm,Find out which office deals with your company's post code,R&D specialist units are located throughout the UK. They deal with enquiries on a UK post code basis. First check which unit deals with your company's post code and then follow the link below to find out contact details,http://www.hmrc.gov.uk/manuals/cirdmanual/CIRD80360.htm,,Find your R&D specialist unit contact details,,http://www.hmrc.gov.uk/manuals/cirdmanual/CIRD80350.htm,,,,,,,,,,,,,,,,,,,,,,,,,,,,,,,,"If your company's tax affairs are handled by Large Business Service (LBS), you should contact LBS.",,,,,,Large Business Service - who to contact,,http://www.hmrc.gov.uk/large-businesses/contacts.htm,,,,,enquiry,Pvzq8v3IoTM,31/05/2013 14:58:28
89,Stamp Taxes - Urgent Scottish transactions,Information for Solicitors dealing with Scottlish land transactions,,"individuals & employees > All individuals
businesses & corporations > All businesses",Tax,,,Stamp Taxes,"Understanding Stamp Duty Land Tax, when its payable and how its calculated",http://www.hmrc.gov.uk/so/index.htm,SDLT returns for Scottish transactions,"Information on paper or online options including Automated Registration of Title to Land (ARTL), how to get an urgent SDLT certificate",http://www.hmrc.gov.uk/sdlt/return/scottish.htm,,,,,Urgent Scottish transcations,Solicitors dealing with Scottish land transactions that need to complete and register on the same day under the 2 day arrangement. Or handling documents that need to be urgently stamped under Stamp Duty should telephone the number to make arrangements.,"8.30 am to 4.00 pm, Monday to Friday 
Closed weekends and bank holidays",03000 561 627,,,,,,,03000 561 703,"For all other enquiries relating to stamp taxes on the purchase of land, property and shares or on the leasing of land and property contact the Stamp Taxes Helpline.",Stamp Taxes Helpline,,http://search2.hmrc.gov.uk/kbroker/hmrc/contactus/search.ladv?raction=view&amp;fl0=__dsid%3A&amp;sm=0&amp;ha=34&amp;as=1&amp;sf=&amp;sp_scope=hmrc&amp;sc=hmrc&amp;nh=10&amp;sr=0&amp;cs=ISO-8859-1&amp;tx1=&amp;tx0=49668,,,,,,,,,,,,,,,If you have made an arrangement to send urgent documents related to Scottish transactions you should send them to the address below:,,"Edinburgh Stamp Office,
Elgin House
20 Haymarket Yards 
Edinburgh
EH12 5WN

The address for solicitors using the DX system is:

ED 543303 Edinburgh 33",,"All other enquiries should be sent to: 
Birmingham Stamp Office 
9th Floor 
City Centre House 
Birmingham 
B2 4AR 

DX 15001 Birmingham 1",,,,Address to send cheques and returns,You should not send cheques or paper returns to the Birmingham address,http://search2.hmrc.gov.uk/kbroker/hmrc/contactus/search.ladv?sr=0&amp;as=1&amp;cs=ISO-8859-1&amp;sc=hmrc&amp;sf=&amp;sm=0&amp;nh=50&amp;ha=34&amp;tx0=49670&amp;fl0=__dsid:&amp;tx1=2040&amp;raction=view,,,,,enquiry,2VZIkJl4Tco,31/05/2013 14:58:28
90,Stamp Duty Reserve Tax enquiries,For all enquiries relating to Stamp Duty Reserve Tax,,"individuals & employees > All individuals
businesses & corporations > All businesses",Tax,,,Stamp Duty Reserve Tax (SDRT):the basics,"Who pays Stamp Duty Reserve Tax, what it's charged on, rates payable and when and how it's paid",http://www.hmrc.gov.uk/sdrt/intro/basics.htm,How to pay Stamp Duty Reserve Tax,Information on payment methods,http://www.hmrc.gov.uk/payinghmrc/stamp-reserve.htm,,,,,Stamp Taxes Helpline,"For enquiries relating to stamp taxes payable on the purchase of land, property and shares or on the leasing of land and property","8.30 am to 5.00 pm, Monday to Friday 
Closed weekends and bank holidays",0845 603 0135,,,,,,+44 1726 209 042,03000 570 316,You may want to call between 12.00 pm and 2.00 pm when we are generally less busy. For enquiries relating to SDLT1 please have the Unique Taxpayer Reference number available.,,,,,,,,,,,,,,,,,,Writing to HMRC about Stamp Duty Reserve Tax,,"Birmingham Stamp Office 
9th Floor 
City Centre House 
30 Union Street
Birmingham
B2 4AR

If you use the DX service the address is:

150001 Birmingham 1",,,,,"Please mark your correspondence 'SDRT', and the subject you are writing about, and include any reference number.",,,,,,,,enquiry,9qbA6-d-M9c,31/05/2013 14:58:28
91,Stamp Duty enquiries - shares and land,For Stamp Duty enquiries relating to shares and land,,"individuals & employees > All individuals
businesses & corporations > All businesses",Tax,,,Stamp Duty: the basics,Stamp Duty is charged on shares you buy using a stock transfer form and on land transfers before December 2003,http://www.hmrc.gov.uk/sd/getstarted/basics.htm,Stamp Duty on shares,"When you buy shares valued above £1,000 using a stock transfer form, you usually have to get the form stamped by HMRC and pay Stamp Duty",http://www.hmrc.gov.uk/sd/shares/sharetransfers.htm,,,,,Stamp Taxes Helpline,"For enquiries relating to stamp taxes payable on the purchase of land, property and shares or on the leasing of land and property","8.30 am to 5.00 pm, Monday to Friday 
Closed weekends and bank holidays",0845 603 0135,Stocks and shares 'same day' stamping service,"This service is only available in exceptional circumstances when it is essential to have a document stamped immediately. 
   
If you become aware that a transaction may need an instrument stamped at short notice you should contact the Stamp Duty Team giving as much detail as possible. Include the number of instruments to be stamped, the specific reason or reasons for the request and the amount of Stamp Duty.

This number is only for the same day stamping service and should not be used for general enquiries.","8.30 am to 5.00 pm, Monday to Friday 
Closed weekends and back holidays",03000 570 320,,+44 1726 209 042,03000 570 316,,,,,,,,,,,,,,,,,,Writing to HMRC about Stamp Duty,Use the address below if you're writing to HMRC about anything to do with Stamp Duty including documents to be stamped and making payment by cheque.,,"Birmingham Stamp Office 
9th Floor 
City Centre House
30 Union Street 
Birmingham 
B2 4AR 

If you use the DX service the address is:

15001 Birmingham 1 

Please mark your correspondence 'Stamp Duty' and the subject you are writing about and include any reference number.",,,,,,,,,,,,,enquiry,Xn5eIwnYChM,17/06/2013 15:47:46
92,"Appealing against an HM Revenue & Customs decision
VAT appeals
Self Assessment appeals
Tax credits appeals",Find out how and when you can appeal against an HM Revenue & Customs decision on tax and other matters,,"individuals & employees > Self-employed
individuals & employees > All individuals
businesses & corporations > All businesses
employers > All employers",See also,,,What to do if you disagree with an HM Revenue & Customs decision,Find out how to ask for a review or appeal against an HM Revenue & Customs decision,http://www.hmrc.gov.uk/dealingwith/appeals.htm,,,,,,,,,,,,,,,,,,,,,,,,,,,,,,,,,,,,,,,,,,,,,,,,,,,,enquiry,XLYQwULdyx8,31/05/2013 14:58:28
93,Offshore Disclosures,Find out what to do if you want to make a disclosure about a tax you haven't paid,,individuals & employees > All individuals,Tax,,,,,,,,,,,,,,,,,,,,,,,,,,,,,,,,,,,,,,,,,,You can make a disclosure and put your tax affairs in order anytime. Customers who make a full and voluntary disclosure of all unpaid liabilities in these circumstances can expect a lower penalty than HMRC would seek if we contacted you first to make a compliance check - before you make a disclosure.,If you want to make a disclosure you should send details of the disclosure to:,"HM Revenue & Customs
Parkway House 
49 Baddow Road 
Chelsmford 
Essex
CM2 0XA",,,,,,,,,,,,,enquiry,hbvyLoHCna8,31/05/2013 14:58:28
94,Secure Electronic Transfer (SET),Find out about SET and the type of return it supports,,businesses & corporations > All businesses,See also,,,Secure Electronic Transfer,"Information about Secure Electronic Transfer, who should use it and how to sign up",http://www.hmrc.gov.uk/set/index.htm,,,,,,,,,If you would like more information about SET and wish to speak with an HMRC representative about signing up for the service please contact us using telephone or email options.,"9.00 am to 5.30 pm, Monday to Friday 
Closed weekends and bank holidays",03000 597 222,,,,,,+44 3000 597 222,,,,,,,Email the team if you are interested in SET and wish to find out more about this service or want to sign up @,,MDTSSETCustomerManagement@hmrc.gsi.gov.uk,,,,,,"We cannot guarantee the security of emails you send to us or we send to you over the internet. Information sent by email over the internet is not secure and it is at the risk of being intercepted and read by people other than those it was intended for. Any information you send to us by email is at your own risk. If you would like us to reply by email, please confirm in your message that you understand and accept the risks involved. 

If you have any doubt about the authenticity of an email you receive which claims to come from HMRC please do not follow any of the links within the email, disclose any personal details or respond to it. 

Follow the link below to report HMRC related phishing emails.",Reporting HMRC related phishing emails,,http://www.hmrc.gov.uk/security/reporting.htm,,,,,,,,,,,,,,,,,enquiry,HqznoMUuusQ,31/05/2013 14:58:28
95,Excise Movement and Control System (EMCS) Enquiries,Information for businesses about Excise Movement & Control System (EMCS),,businesses & corporations > All businesses,"VAT, Customs, Excise duties",,,,,,,,,,,,,EMCS National Service Desk Helpline,The quickest and easiest way to get your technical or business questions answered is to ring the EMCS National Service Desk.,"8.00 am to 5.00 pm, Monday to Friday 
Closed weekends and bank holidays",0845 600 5022,,,,,,00 44 1255 244 869,,"If your question is about the registration or enrolment process for the EMCS service, please contact the EMCS Online Services Helpdesk by following the link below.",EMCS Online Services Helpdesk,,http://search2.hmrc.gov.uk/kbroker/hmrc/contactus/search.ladv?ha=34&amp;tx0=535807&amp;fl0=__dsid:&amp;tx1=2040&amp;raction=view,The EMCS National Service Desk can be contacted by email if you have a technical or business question.,Email EMCS @,,EMCS.Helpdesk@hmrc.gsi.gov.uk,,,,,,"We cannot guarantee the security of emails you send to us or we send to you over the internet. Information sent by email over the internet is not secure and it is at risk of being intercepted and read by people other than those it was intended for. Any information you send to us by email is at your own risk. If you would like us to reply by email, please confirm in your message that you understand and accept the risks involved. However, if our response to you contains any personal or confidential information we will only reply to you by letter or telephone. 

If you have any doubt about the authenticity of an email you receive which claims to come from HMRC please do not follow any links within the email, disclose any personal details or respond to it. 

Follow the link below to report HMRC related phishing emails.",Reporting HMRC related phishing emails,,http://www.hmrc.gov.uk/security/reporting.htm,,,,,,,,,,,,,,,,,enquiry,FR_CZpPVKRM,31/05/2013 14:58:28
96,"Excise Movement and Control System (EMCS) - Online Services Helpdesk
Online Services Helpdesk for Excise Movement and Control System (EMCS)",For help and assistance with the registration or enrolment process for the EMCS service,,businesses & corporations > All businesses,"VAT, Customs, Excise duties",,,,,,,,,,,,,EMCS Online Services Helpdesk,For help and assistance to register and enrol to use to use the EMCS service,"8.00 am to 5.00 pm, Monday to Friday 
Closed weekends and bank holidays",0845 010 8500,,,,,,00 44 1255 244 869,,,,,,,Email EMCS @,,EMCS.Helpdesk@hmrc.gsi.gov.uk,,,,,,"We cannot guarantee the security of emails you send to us or we send to you over the internet. Information sent by email over the internet is not secure and it is at risk of being intercepted and read by people other than those it was intended for. Any information you send to us by email is at your own risk. If you would like us to reply by email, please confirm in your message that you understand and accept the risks involved. However, if our response to you contains any personal or confidential information we will only reply to you by letter or telephone. 

If you have any doubt about the authenticity of an email you receive which claims to come from HMRC please do not follow any links within the email, disclose any personal details or respond to it. 

Follow the link below to report HMRC related phishing emails.",Reporting HMRC related phishing emails,,http://www.hmrc.gov.uk/security/reporting.htm,,,,,,,,,,,,,,,,,enquiry,cfi3QW2OmYU,31/05/2013 14:58:28
97,"Alcohol & Tobacco Warehousing Declaration (ATWD) - Online Services Helpdesk
Online Services Helpdesk - Alcohol & Tobacco Warehousing Declaration (ATWD)",For assistance on how to register or enrol to use the ATWD service,,businesses & corporations > All businesses,"VAT, Customs, Excise duties",,,,,,,,,,,,,ATWD - Online Services Helpdesk,For help and assistance on how to register or enrol to use ATWD service,"8.00 am to 5.00 pm, Monday to Friday  
Closed weekends and bank holidays",0845 010 8500,,,,,,,,,,,,,ATWD Online Services Helpdesk - email a question,You can email a question about an Alcohol & Tobacco Warehousing Declaration (ATWD),,https://online.hmrc.gov.uk/shortforms/form/OSHVAT?dept-name=&sub-dept-name=&location=47&origin=http://www.hmrc.gov.uk,,,,,"To send a question you will need to include an email address along with a contact name and the postcode of your main place of business. You will also need to include your Warehouse ID. 

By submitting information to us directly by using special forms on our website your message is secure, but our email reply to you, which will be sent over the internet, is not. Information sent by email over the internet is not secure and is at risk of being intercepted and read by people other than those it was intended for. If our response to you contains any personal or confidential information we will only reply to you by letter or telephone. 

If you have any doubt about the authenticity of an email you receive which claims to have come from HMRC please do not follow any links within the email, disclose any personal details or respond to it. 

Follow the link below to report HMRC related phishing emails.",Reporting HMRC related phishing emails,,http://www.hmrc.gov.uk/security/reporting.htm,,,,,,,,,,,,,,,,,enquiry,hzALFUz_gvw,31/05/2013 14:58:28
98,Guardian's Allowance Helpline,Find out if you can get Guardian's Allowance if you're bringing up someone else's child or children and both parents have died,,individuals & employees > All individuals,Tax credits and other benefits,,,Guardian's Allowance,Find out if you can get Guardian's Allowance if you're bringing up a child whose parents have died,http://www.hmrc.gov.uk/childbenefit/payments-entitlements/other-benefits/guardians-allowance.htm,,,,,,,,Guardian's Allowance Helpline,,"8.00 am to 8.00 pm, Monday to Friday
8.00 am to 4.00 pm Saturday  
Closed Sundays and bank holidays",0300 200 3101,,,,,0300 200 3103,,,,,,,Use the HM Revenue & Customs email service,Send us your Guardian's Allowance query online,,,http://www.hmrc.gov.uk/childbenefit/question.htm,Let us know about changes online that may affect your Guardian's Allowance,,,http://www.hmrc.gov.uk/childbenefit/change-circs.htm,"By submitting information to us directly by using special forms on our website your message is secure, but our email reply to you, which will be sent over the internet, is not. Information sent by email over the internet is not secure and is at risk of being intercepted and read by people other than those it was intended for. If our response to you contains any personal or confidential information we will only reply to you by letter or telephone. 

If you have any doubt about the authenticity of an email you receive which claims to have come from HMRC please do not follow any links within the email, disclose any personal details or respond to it. 

Follow the link below to report HMRC related phishing emails.",Reporting HMRC related phishing emails,,http://www.hmrc.gov.uk/security/reporting.htm,,You can write to us at the following address:,,"The Guardian's Allowance Unit 
Child Benefit Office
PO Box 1 
Newcastle upon Tyne  
NE88 1AA",,,,,,,,,,,,,enquiry,KrgmDKbrQ-Y,31/05/2013 14:58:28
99,Status Customer Service Team,For individuals or employers who are unable to use the Employment Status Indicator tool (ESI) and are unsure of their workers or your own employment status (employed or self-employed),,"individuals & employees > All individuals
employers > All employers",Tax,,,Online Employment Status Indicator,Use the Online interactive tool to help you decide employment status - it's the quickest way of getting HMRC's view if you or a worker is employed or self-employed,http://www.hmrc.gov.uk/calcs/esi.htm,,,,,,,,Status Customer Service Team,"Employment status enquiries for Scotland, Wales and Northern Ireland","9.00 am to 5.00 pm, Monday to Friday 
Closed weekends and bank holidays",01355 275 871,Status Customer Service Team,Employment status enquiries for England,"9.00 am to 5.00 pm, Monday to Friday 
Closed weekends and bank holidays",03000 527450,,,,,,,,,,,,,,,,,,,,,,,"For written enquiries for Scotland, Wales and Northern Ireland","HM Revenue & Customs
Status Customer Service Team S0889
PO Box 3900
Glasgow
G70 6AA",,"For written enquiries for England

HM Revenue & Customs
Status Customer Service Team S0844 
PO Box 3900
Glasgow
G70 6AA",,,,,,,,,,,enquiry,jriKalW18IQ,31/05/2013 14:58:28
100,Welsh Language Helpline for Debt Management,For enquiries on methods of payment,,"individuals & employees > All individuals
businesses & corporations > All businesses",See also,,,,,,,,,,,,,Welsh Language Helpline for Debt Management,,"8.00 am to 5.00 pm, Monday to Friday 
Closed weekends and bank holidays",03000 534 863,,,,,,,,"For enquiries regarding: 
- Pay As You Earn (PAYE) 
- National INsurance Contributions Class 1, 2 and 4 
- Corporation Tax 
- Self Assessment Tax 
- Pre Self Assessment debt
- Value Added Tax (VAT) 
- Insurance Premium Tax 
- Air Passenger Duty 
- Landfill Tax 
- Climate Change Levy
- Aggregates Levy 
- Traders Accounts Payments System 
- Money Laundering Regulations 
- Trade Statistics 
- Eurpoean Sales List (ESLs) 
- Rebated Fuels 
- Amusement Machine Licence Duty 
- Bingo Duty 
- Gaming (Casinos) Duty 
- General Betting Duty 
- Lottery Duty 
- Pool Betting Duty",,,,,,,,,,,,,,,,,,,,,,,,,,,,,,,,,enquiry,oZYhdCbcE0s,31/05/2013 14:58:28
101,Childcare Provider's Helpline,For all enquiries relating to the childcare element of Working Tax Credit.,,"individuals & employees
businesses & corporations > All businesses",See also,,,Information for childcare providers,Find out more about what you need to know when providing childcare for individuals claiming the childcare element of Working Tax Credit,http://www.hmrc.gov.uk/leaflets/wtc5-hs.pdf,,,,,,,,Childcare Provider's Helpline,This helpline provides advice regarding the childcare element of Working Tax Credit for child care providers only. For all other tax credit enquiries contact the Tax Credits Helpline by following the link below.,"8.00 am to 8.00 pm, Monday to Friday 
8.00 am to 4.00 pm Saturday",0845 300 3941,,,,,0845 300 3909,,,,Tax Credits Helpline,,http://search2.hmrc.gov.uk/kbroker/hmrc/contactus/search.ladv?sr=0&amp;as=1&amp;cs=ISO-8859-1&amp;sc=hmrc&amp;sm=0&amp;nh=50&amp;ha=34&amp;tx0=60&amp;fl0=contactid:&amp;tx1=&amp;raction=view,,,,,,,,,,,,,,,,You can write to us at the following address:,"Tax Credit Office 
Preston 
PR1 0SB",,,,,,,,,,,,,enquiry,zE9d1QZujXQ,31/05/2013 14:58:29
102,Public Bodies Enquiries,VAT and employer taxes enquiries for Public Bodies,,businesses & corporations > All businesses,See also,,,,,,,,,,,,,Public Bodies Group Customer Coordinator Team,"Over the last few years we have been working closely with large businesses and public bodies to improve the way we work with them. In response to requests for a single, initial point of contact with us, the Public Bodies Group has now introduced a Customer Co-ordinator Team.","9.00 am to 3.00 pm, Monday to Friday 
Closed weekends and bank holidays",0845 600 5310,,,,,,,,"You can contact us through our Customer Co-ordinator Team and they will look to deal with your VAT and employment taxes queries in the most effective way possible.  Usually, one of the Customer Coordinators will reply to your query, but where this is not possible, they will pass it onto the right person.",,,,Use the HM Revenue & Customs email service,Send the Public Bodies Customer Coordinator Team your VAT or employer taxes enquiries,,,http://www.hmrc.gov.uk/public-bodies/webform.htm,,,,,"By submitting information to us directly by using special forms on our website your message is secure, but our email reply to you, which will be sent over the internet, is not. Information sent by email over the internet is not secure and is at risk of being intercepted and read by people other than those it was intended for. If our response to you contains any personal or confidential information we will only reply to you by letter or telephone. 

If you have any doubt about the authenticity of an email you receive which claims to have come from HMRC please do not follow any links within the email, disclose any personal details or respond to it. 

Follow the link below to report HMRC related phishing emails.",Reporting HMRC related phishing emails,,http://www.hmrc.gov.uk/security/reporting.htm,,,Public Bodies can write to HMRC at the following address:,"Public Bodies Group
Customer Coordinator Team 
Custom House 
The Dockland 
Pembroke Dock 
SA72 6TW",,,,,,,,,,,,,enquiry,F7zhWHxPw_I,31/05/2013 14:58:29
103,"Employers - how to confirm an employee tax code
Employee tax code
Tax code for an employee",Help for employers who want to check the tax code for an employee or provide certain information,,employers > All employers,Tax,,,,,,,,,,,,,Taxes Helpline,"Help for employers who think they maybe operating a wrong tax code for an employee. 

If you pass certain HMRC security checks, the Taxes Helpline will confirm an employee tax code and accept certain information impacting on a tax code. The only employee information HMRC will disclose is the tax code. They'll not be able to discuss a tax code in any detail or provide any  other information relating to an employee.

Please have your employee's National Insurance number with you when you phone.","8.00 am to 8.00 pm, Monday to Friday 
8.00 to 4.00 pm Saturday",0300 200 3300,,,,,,,,"If you've passed the HMRC security checks, they will accept information that could impact on an employee tax code. They will accept the following information to update their records:  
- details of new employment and the date it started  
- employee works or payroll number 

The Taxes Helpline can't tell you why a tax code has changed, but they'll explain the reason to your employee. Your employee can contact the  helpline by following the link below.","Taxes Helpline for individuals, pensioners and employees",,http://search2.hmrc.gov.uk/kbroker/hmrc/contactus/search.ladv?raction=view&amp;fl0=__dsid%3A&amp;sm=0&amp;ha=34&amp;as=1&amp;sf=&amp;sp_scope=hmrc&amp;cs=ISO-8859-1&amp;tx0=49612,,,,,,,,,,,,,,,,,,,,,,,,,,,,,,enquiry,XAkMwTNmvik,24/06/2013 09:15:26
104,"International tax queries
Businesses International
CTIAA Business International
International tax for businesses",Offices dealing with international tax queries,,businesses & corporations > All businesses,Tax,,,HMRC offices dealing with international tax,There are a number of HMRC offices that deal with international tax. This guide will help you decide who you should contact.,http://www.hmrc.gov.uk/international/contacts.htm,,,,,,,,,,,,,,,,,,,,,,,,,,,,,,,,,,,,,,,,,,,,,,,,,,,,enquiry,336TuD-xvpU,31/05/2013 14:58:29
106,"Voluntary Disclosure Helpline
Campaigns - Voluntary Disclosure Helpline
Error - Voluntary Disclosure Helpline
Mistake - Voluntary Disclosure Helpline",For advice on bringing your tax up to date when you do not qualify for a current campaign,,"individuals & employees > All individuals
individuals & employees
businesses & corporations > All businesses
employers > All employers",Tax,,,What are HMRC campaigns?,For information about current live campaigns and what to do if you want to bring your tax up to date but don't qualify under a campaign,http://www.hmrc.gov.uk/campaigns/introduction.htm,,,,,,,,Voluntary Disclosure Helpline,For more information about making a voluntary disclosure and how to tell HMRC about your income you can ring the Campaigns Voluntary Disclosure Helpline,"8.00 am to 6.30 pm, Monday to Friday",0845 601 5041,,,,,,,,,,,,,,,,,,,,,,,,,,,You can write to the Voluntary Disclosure Team about your undisclosed income at the following address:,"HM Revenue & Customs 
Local Compliance Centres  
Campaigns Voluntary Disclosure Team S0790
PO Box 3900  
Glasgow
G70 6AA",,,,,,,,,,,,"error, mistake",enquiry,Du_66zQHubg,31/05/2013 14:58:29
107,Couriers,Find out which HM Revenue & Customs address to use to deliver to local Tax Offices,,"individuals & employees > All individuals
businesses & corporations > All businesses
employers > All employers",See also,,,,,,,,,,,,,,,,,,,,,,,,,,,,,,,,,,,,,,,,,,"Couriers can still deliver to HMRC local office addresses, but will not be able to deliver to PO Boxes. 

If you are a courier and don't know a HMRC local office address, please use the following:",,"HM Revenue & Customs
St Mungo's Road 
Cumbernauld 
Strathclyde
G67 1YZ",,,,,,,,,,,,,enquiry,WW0sjGqioLg,31/05/2013 14:58:29
108,"Non-UK expatriate employees (Expats)
Expatriate Employees",Advice for people working for multi-national organisations seconded to the UK for up to 3 years,,individuals & employees > All individuals,Tax,,,,,,,,,,,,,,,"8.30 am to 5.00 pm, Monday to Friday 
Closed weekends and bank holidays",03000 533 148,,,,,,,0161 261 3198,For people working for multi-national organisations seconded or assigned to the UK for up to 3 years. This helpline does not deal with UK Nationals leaving the UK to work abroad. If you are a UK National leaving the UK to work abroad contact the Taxes Helpline by following the link below.,Taxes Helpline,,http://search2.hmrc.gov.uk/kb5/hmrc/contactus/view.page?record=hpkspulskxM,,,,,,,,,,,,,,,,,"HMRC Personal Tax International
Operations, SO733
PO Box 203
L69 9AP",,,,,,,,,,,,,enquiry,Fcq4VtD7AW8,04/07/2013 09:12:56
109,"VAT and option to tax
Option to tax - VAT",For all queries about VAT and opting to tax land or buildings,,businesses & corporations > All businesses,"VAT, Customs, Excise duties",,,Notice 724A - Opting to land and buildings,Read VAT Notice 742A to help you decide whether to opt to tax land and buildings,http://customs.hmrc.gov.uk/channelsPortalWebApp/channelsPortalWebApp.portal?_nfpb=true&_pageLabel=pageVAT_ShowContent&id=HMCE_CL_000158&propertyType=document,,,,,,,,VAT Helpline,"Phone the VAT Helpline for all queries about VAT and opting to tax land or buildings. Before you ring, make sure you have your VAT registration number and post code to hand. If you're not registered for VAT you'll need your post code.","8.00 am to 6.00 pm, Monday to Friday
Closed weekends and bank holidays",0300 200 3700,Option to Tax Unit,"Please only contact the Option to Tax Unit by telephone if you have recently received correspondence from the unit and have a query about this. 

Please note you should allow at least 15 working days for the unit to respond to your original enquiry","9.00 am to 5.00 pm, Monday to Thursday 
9.00 am to 4.30 pm Friday",03000 530005,,,03000 529807,,,,,Option to Tax Unit,,,optiontotaxnationalunit@hmrc.gsi.gov.uk,,,,,,"Email Option to Tax Unit quoting your full name and addresss if you want to:
- ask a specific question relating to a recent letter you have received from the Option to Tax Unit 
- establish whether you have opted to tax a particular area of land / property 
- submit an option to tax notification

We cannot guarantee the security of emails you send to us over the internet. Information sent by email over the internet is not secure and it is at risk of being intercepted and read by people other than those it was intended for. Any information you send to us by email is at your own risk. 

We will respond to your email enquiries by postal mail as the information we will provide is confidential.   

If you have any doubt about the authenticity of an email you receive which claims to come from HMRC please do not follow any links within the email, disclose any personal details or respond to it. 

Follow the link below to report HMRC related phishing emails.",Report HMRC related phishing emails,,http://www.hmrc.gov.uk/security/phishing.htm,,,,,,,,,"Although we recommend that you send your questions by email, you can write to us to: 
- ask a specific question relating to a recent letter you have received from the Option to Tax Unit 
- establish whether you have opted to tax a particular area of land / property 
- submit an option to tax notification 
- attach some relevant additional information

Important 
Please do not send more than one copy of your enquiry to the Option to Tax Unit as this will delay the unit's reply to you. For example, do not send an enquiry to the unit by email and then send the same enquiry by post.   

Please note you should allow at least 15 working days for the Option to Tax Unit to respond to your original enquiry. The address is:

HM Revenue & Customs
Option to Tax Unit 
Cotton House 
7 Cochrane Street 
Glasgow 
G1 1GY",,,,,,,,enquiry,1qGlHTZsK5g,01/07/2013 09:03:02
110,"VAT Outstanding Returns
Campaigns - VAT Outstanding Returns",For guidance on the VAT Outstanding Returns campaign and how to bring your VAT up to date,,"businesses & corporations > All businesses
businesses & corporations","VAT, Customs, Excise duties",,,VAT Outstanding Returns Campaign,For guidance on the VAT Outstanding Returns campaign and how to bring your VAT up to date,http://www.hmrc.gov.uk/campaigns/vator.htm,,,,,,,,VAT Helpline,"If you can't find the information you need to bring your VAT up to date on the HMRC website, you can call the VAT Helpline","8.00 am to 6.00 pm, Monday to Friday 
Closed weekends and bank holidays",0300 200 3700,,,,,,+44 2920 501 261,,,,,,,,,,,,,,,,,,,,,For advice on the VAT Outstanding Returns campaign you can write to the team at the following address:,"HM Revenue & Customs
VAT Outstanding Returns Team 
Newcastle Compliance Centre 
BP5102 Dunstanburgh House 
Benton Park View 
Longbenton
Newcastle 
NE98 1ZZ",,,,,,,,,,,,,enquiry,0-JFpVPC8Mg,24/06/2013 09:24:42
112,"Property Sales campaign
Campaigns - property sales","For advice on how to take part in the Property Sales campaign if you have sold a residential property, in the UK or abroad, that?s not you main home, and have not told HM Revenue & Customs (HMRC) about it.",,"individuals & employees > All individuals
individuals & employees",Tax,,,Property Sales campaign,"For advice on how to take part in the Property Sales campaign if you have sold a residential property, in the UK or abroad, that?s not you main home, and have not told HM Revenue & Customs (HMRC) about it.",http://www.hmrc.gov.uk/campaigns/psc.htm,,,,,,,,Property Sales Campaign Helpline,"If you can?t find the answer to your question on the HMRC website, you can phone the Property Sales Campaign Helpline:","Opening hours 8.00 am to 6.30 pm, Monday to Friday",0845 601 8819,,,,,,+44 120 258 5395,,,,,,,,,,,,,,,,,,,,,For advice on the Property Sales campaign you can write to the team at the following address:,"HM Revenue & Customs 
Local Compliance Centres
Property Sales Campaign S0790
PO Box 3900
Glasgow
G70 6AA",,,,,,,,,,,,,enquiry,RWe52H6n270,31/05/2013 14:58:30
113,"Offshore Disclosure Facility Helpdesk
Isle of Man Disclosure Facility
Guernsey Disclosure Facility
Jersey Disclosure Facility",Tell HMRC about your undisclosed offshore income and pay what you owe within set deadlines,,"individuals & employees > All individuals
businesses & corporations > All businesses",Tax,,,What are offshore facilities?,Opportunities to tell HMRC about your undisclosed offshore income and pay tax you owe within set deadlines,http://www.hmrc.gov.uk/offshoredisclosure,,,,,,,,Offshore Disclosure Facility Helpdesk,"Phone the helpdesk for all queries about making an offshore disclosure for assets held in the Isle of Man, Guernsey and Jersey.","8.30 am to 4.30 pm, Monday to Friday 
Closed weekends, Christmas Day, Boxing Day and New Year's Day",0845 600 6407,,,,,,"+44 151 300 2714, +44 151 300 2731, +44 151 300 2709",,,,,,,,,,,,,,,,,,,,,You can write to HMRC by using the postal address on the most recent correspondence from us. If you don't have recent correspondence from us then write to:,"Specialist Investigations
Offshore Helpdesk SO694
PO Box 29992
Glasgow
G70 6AB",,,,,,,,,,,,,enquiry,zdl8hG_Uy6w,31/05/2013 14:58:30
114,Annual Tax on Enveloped Dwellings (ATED),"For information and advice about ATED, who needs to complete and submit a return and make a payment",,"individuals & employees > All individuals
businesses & corporations > All businesses",Tax,,,Annual Tax on Enveloped Dwellings (ATED) ? the basics,"Understanding ATED, the new tax on high value property, whether it affects you and how it operates.",http://www.hmrc.gov.uk/ated/index.htm,,,,,,,,Annual Tax on Enveloped Dwellings Helpline,For enquiries relating to ATED,"8.30 am to 5.00 pm Monday to Friday
Closed weekends and bank holidays",0845 603 0135,,,,,,+44 1726 209 042,03000 570 316,,,,,,,,,,,,,,,,,,Writing to HM Revenue & Customs (HMRC) about ATED,,,"Use the address below if you're writing to HMRC about anything to do with ATED. 

Annual Tax on Enveloped Dwellings Team
HMRC SDLT and ATED Policy 
Room 3E/07
100 Parliament Street 
London
SW1A 2BQ",,,,,,,,,,,,,enquiry,zRPjRJyXrS4,31/05/2013 14:58:30
115,"Campaigns - My Tax Return Catch Up
My Tax Return Catch Up campaign",For advice about bringing your Self Assessment tax returns up to date,,individuals & employees > Self-employed,Tax,,,My Tax Return Catch Up campaign,For guidance on the My Tax Return Catch Up campaign and how to bring your Self Assessment tax returns up to date,http://www.hmrc.gov.uk/campaigns/mtrc.htm,,,,,,,,My Tax Return Catch Up Campaign Helpline,"If you can't find the information you need to bring your tax returns up to date on the HMRC website, you can phone the helpline","9.00 am to 5.00 pm, Monday to Friday
Closed weekends and bank holidays",0845 601 8818,,,,,,+44 120 258 5395,,,,,,,,,,,,,,,,,,,,,For further advice on the My Tax Return Catch Up campaign you can write to the team at the following address:,"HM Revenue & Customs
Local Compliance Centres
My Tax Return Catch Up team S0790
PO Box 3900
Glasgow
G70 6AA",,,,,,,,,,,,,enquiry,XqTKgHTGuBE,11/07/2013 07:53:42
